{
"type": "FeatureCollection",
"name": "南庄要存置林野",
"crs": { "type": "name", "properties": { "name": "urn:ogc:def:crs:OGC:1.3:CRS84" } },
"features": [
{ "type": "Feature", "properties": { "OBJECTID_1": 5, "OBJECTID_2": 5, "OBJECTID": 5, "番號": "10", "類型": null, "分區": "要", "Shape_Leng": 0.07103764607, "Shape_Area": 4.888298e-05 }, "geometry": { "type": "MultiPolygon", "coordinates": [ [ [ [ 121.048438235861227, 24.58393702390509 ], [ 121.048025455110974, 24.582325621835537 ], [ 121.047454288791968, 24.580726655204597 ], [ 121.047259985394291, 24.578533753883775 ], [ 121.047042912851836, 24.577482995758171 ], [ 121.046730557261739, 24.576967309870511 ], [ 121.046551746366049, 24.576672101765975 ], [ 121.045923482827334, 24.575210194941363 ], [ 121.045432274059593, 24.573748279770612 ], [ 121.045192356105531, 24.572651837312073 ], [ 121.045179390942423, 24.572571557317403 ], [ 121.044781025497699, 24.570104883703941 ], [ 121.044255579021424, 24.569042720928032 ], [ 121.043642179911203, 24.568005651319481 ], [ 121.04299910303061, 24.566918405635338 ], [ 121.042781088933111, 24.566338310552982 ], [ 121.042290863485491, 24.565033910711204 ], [ 121.041822500932795, 24.56362910214963 ], [ 121.041589133795412, 24.562314235536537 ], [ 121.041445461523139, 24.561504739093824 ], [ 121.042199086461096, 24.558774979950897 ], [ 121.042311839992692, 24.55806683399965 ], [ 121.040830397679017, 24.558054619782798 ], [ 121.039507431132634, 24.557978548680548 ], [ 121.038622279021553, 24.557902453812027 ], [ 121.037565812491238, 24.557902511160563 ], [ 121.036462216735231, 24.557625285732534 ], [ 121.036468086390826, 24.557637023368081 ], [ 121.037001135182479, 24.558512635739749 ], [ 121.037564628625205, 24.559213118735517 ], [ 121.037975860544634, 24.560241023553058 ], [ 121.038082496363586, 24.5608120891978 ], [ 121.039120029661561, 24.56182237466361 ], [ 121.03971297155546, 24.564041431835516 ], [ 121.039999316955033, 24.564357884193569 ], [ 121.041293835473581, 24.566051990447527 ], [ 121.041631813891158, 24.567976028896179 ], [ 121.042344771678927, 24.568842566314011 ], [ 121.042821042196195, 24.569435120971228 ], [ 121.043176350723442, 24.57088057873943 ], [ 121.043778608176339, 24.573092689921261 ], [ 121.044052189433046, 24.574097563361104 ], [ 121.044601270670029, 24.575851765917182 ], [ 121.045210482116559, 24.577047174019263 ], [ 121.045633771449388, 24.578107629129843 ], [ 121.046187217908937, 24.580414724872185 ], [ 121.047360513955411, 24.584182699063295 ], [ 121.048438235861227, 24.58393702390509 ] ], [ [ 121.038741785870698, 24.560290475273597 ], [ 121.038599005291061, 24.560056343575447 ], [ 121.038604648448214, 24.559016994736112 ], [ 121.038918687443299, 24.558325981633018 ], [ 121.039079234690561, 24.558253887742286 ], [ 121.039586872741907, 24.558965545148542 ], [ 121.039672580525647, 24.559713642614341 ], [ 121.040243685578901, 24.560370343486767 ], [ 121.040494976531804, 24.560724393916015 ], [ 121.040340817720121, 24.561152705408915 ], [ 121.039849705018781, 24.561169864160405 ], [ 121.038741785870698, 24.560290475273597 ] ] ] ] } },
{ "type": "Feature", "properties": { "OBJECTID_1": 9, "OBJECTID_2": 9, "OBJECTID": 9, "番號": "17", "類型": null, "分區": "要", "Shape_Leng": 0.14956729005, "Shape_Area": 0.00062232948 }, "geometry": { "type": "MultiPolygon", "coordinates": [ [ [ [ 120.963374476837828, 24.523634484875537 ], [ 120.963854136216824, 24.523120495229403 ], [ 120.964665046281681, 24.523131872657508 ], [ 120.965373141572883, 24.522777770146845 ], [ 120.966104087308224, 24.522560724027727 ], [ 120.966365128715964, 24.522542064224066 ], [ 120.966855709861136, 24.521953286341969 ], [ 120.96749698511816, 24.520870706658858 ], [ 120.968252281274872, 24.519595639730628 ], [ 120.968847086240743, 24.518786590573271 ], [ 120.96963224448551, 24.517977530200412 ], [ 120.969989106508578, 24.517168493945888 ], [ 120.97013181335933, 24.516264291317164 ], [ 120.96984613308301, 24.513956228329413 ], [ 120.969489158576764, 24.513028257613691 ], [ 120.971011966697688, 24.512623666179557 ], [ 120.973415144499853, 24.511933492188572 ], [ 120.977174540882316, 24.510386638372506 ], [ 120.980029746547316, 24.508720860427424 ], [ 120.981885626464035, 24.507578618694279 ], [ 120.983003914431208, 24.506912308637617 ], [ 120.98357501634554, 24.507507142546004 ], [ 120.983646480678502, 24.508768253887922 ], [ 120.983622775184216, 24.510148342638761 ], [ 120.984146328388817, 24.511361840042255 ], [ 120.984955406240303, 24.512480143090045 ], [ 120.987430222413622, 24.515739871656152 ], [ 120.988215464736541, 24.516215721694465 ], [ 120.989904901456441, 24.516881879580858 ], [ 120.992641332122162, 24.518238024435103 ], [ 120.995568105252119, 24.519427596370313 ], [ 120.996162984153571, 24.519760688398247 ], [ 120.996686524151229, 24.520783828910691 ], [ 120.997245295321264, 24.522040154593746 ], [ 120.997371656406813, 24.522442662828585 ], [ 120.998360811774958, 24.523779208108166 ], [ 121.005257176361525, 24.524099062201373 ], [ 121.007084578490094, 24.524121805912561 ], [ 121.008425874932584, 24.524101713378734 ], [ 121.008266692088625, 24.522718814327661 ], [ 121.007866759436965, 24.519806374455985 ], [ 121.007980730127557, 24.516075372356038 ], [ 121.009027428246156, 24.512211069833512 ], [ 121.010059229426844, 24.509695566312708 ], [ 121.009795925674339, 24.50964925828778 ], [ 121.009158222731614, 24.509401829026377 ], [ 121.008358713779501, 24.509078265611539 ], [ 121.007806672202975, 24.508849867662168 ], [ 121.006864377856544, 24.508231258727537 ], [ 121.006026775634879, 24.507555536253289 ], [ 121.005598449596732, 24.507108221263408 ], [ 121.004151689497789, 24.506061336512456 ], [ 121.003742392369887, 24.505509323185919 ], [ 121.00334261140398, 24.504938274287245 ], [ 121.003066583838375, 24.504719378905964 ], [ 121.002190905933048, 24.503977033990875 ], [ 121.00134379802013, 24.503482152244342 ], [ 121.000810796767581, 24.503339412804742 ], [ 121.000135041819817, 24.503377521323458 ], [ 120.999116649017608, 24.503415647505179 ], [ 120.998164872990415, 24.50334907457264 ], [ 120.996946593844015, 24.503158783717101 ], [ 120.995338078217102, 24.50281622815713 ], [ 120.994452919858688, 24.502644955208673 ], [ 120.993491620883958, 24.502492721440564 ], [ 120.992615989436743, 24.502454696965209 ], [ 120.991159774115218, 24.502369115401944 ], [ 120.989970061909915, 24.50240725176328 ], [ 120.988923117849282, 24.502473932975096 ], [ 120.988057006249321, 24.502473979895264 ], [ 120.987381252511668, 24.50253112347086 ], [ 120.986515147067422, 24.502626349270063 ], [ 120.985287364990214, 24.502674005223565 ], [ 120.983973926746899, 24.502769254358256 ], [ 120.983155408547773, 24.502854959153311 ], [ 120.981965694138665, 24.502845506077389 ], [ 120.981061495752172, 24.502607608760812 ], [ 120.980261995040294, 24.502398259255788 ], [ 120.979643337596897, 24.502303114789758 ], [ 120.979205531429443, 24.50244590592899 ], [ 120.97832040875771, 24.502826667604303 ], [ 120.977311552055184, 24.503140811487292 ], [ 120.976207518429845, 24.503464478056536 ], [ 120.975655495623073, 24.50354065088845 ], [ 120.974951210957883, 24.503940438727909 ], [ 120.974551479856515, 24.5041403347767 ], [ 120.974256439990157, 24.504283119083915 ], [ 120.973951873490236, 24.504283135584842 ], [ 120.973580696701404, 24.504502066043628 ], [ 120.97316192621588, 24.504644856155657 ], [ 120.972771704782843, 24.504711501795519 ], [ 120.972324384911261, 24.504911401323742 ], [ 120.971896094566659, 24.505016120939089 ], [ 120.971353593743885, 24.505149400227502 ], [ 120.970858676477874, 24.505216051540589 ], [ 120.970249555792691, 24.505406441408862 ], [ 120.970021140713243, 24.505568257165542 ], [ 120.968517378429524, 24.506129891712462 ], [ 120.967460930473152, 24.50640596717524 ], [ 120.966946988271417, 24.506624905374597 ], [ 120.966375928533182, 24.506682043287164 ], [ 120.96535756521746, 24.507177026142728 ], [ 120.964919765481312, 24.507405478646213 ], [ 120.964044174017559, 24.50798611422471 ], [ 120.963244724737919, 24.508585782535519 ], [ 120.962711752390007, 24.508890382226994 ], [ 120.962273950187921, 24.509080762820293 ], [ 120.961969388941142, 24.509175958208669 ], [ 120.961750488455976, 24.509280666483924 ], [ 120.961436411046876, 24.509394897445642 ], [ 120.96104618960382, 24.509461543091483 ], [ 120.960560806024191, 24.509766141106056 ], [ 120.960341908619327, 24.509918437924807 ], [ 120.960208667380371, 24.510023141558761 ], [ 120.960075421828222, 24.510061220693181 ], [ 120.959923147982011, 24.510213513901846 ], [ 120.959409247487102, 24.511021193504352 ], [ 120.960529787062114, 24.511322351816172 ], [ 120.960552679072876, 24.512087585787292 ], [ 120.960507100632725, 24.513732271725225 ], [ 120.960735656938937, 24.515765272009141 ], [ 120.960907084323409, 24.517432789874771 ], [ 120.961147035256317, 24.519054617549724 ], [ 120.961501180930327, 24.52039090417713 ], [ 120.961923854007168, 24.521727187088327 ], [ 120.962243753012928, 24.523326168537707 ], [ 120.96243799536704, 24.524582513173222 ], [ 120.963374476837828, 24.523634484875537 ] ] ] ] } },
{ "type": "Feature", "properties": { "OBJECTID_1": 21, "OBJECTID_2": 21, "OBJECTID": 21, "番號": "16", "類型": null, "分區": "要", "Shape_Leng": 0.1372503473, "Shape_Area": 0.00054507038 }, "geometry": { "type": "MultiPolygon", "coordinates": [ [ [ [ 121.001632814130957, 24.538463713130444 ], [ 121.004373776286599, 24.536322049592069 ], [ 121.005630055228181, 24.535408268185439 ], [ 121.007143319281894, 24.534608686778597 ], [ 121.007857123989837, 24.534237451883207 ], [ 121.008627959927097, 24.532724072774496 ], [ 121.009405154032592, 24.532016177639548 ], [ 121.008933377656746, 24.529609698589933 ], [ 121.008761891432343, 24.527020853969223 ], [ 121.008425874932584, 24.524101713378734 ], [ 121.007084578490094, 24.524121805912561 ], [ 121.005257176361525, 24.524099062201373 ], [ 120.998360811774958, 24.523779208108166 ], [ 120.997371656406813, 24.522442662828585 ], [ 120.997245295321264, 24.522040154593746 ], [ 120.996686524151229, 24.520783828910691 ], [ 120.996162984153571, 24.519760688398247 ], [ 120.995568105252119, 24.519427596370313 ], [ 120.992641332122162, 24.518238024435103 ], [ 120.989904901456441, 24.516881879580858 ], [ 120.988215464736541, 24.516215721694465 ], [ 120.987430222413622, 24.515739871656152 ], [ 120.984955406240303, 24.512480143090045 ], [ 120.984146328388817, 24.511361840042255 ], [ 120.983622775184216, 24.510148342638761 ], [ 120.983646480678502, 24.508768253887922 ], [ 120.98357501634554, 24.507507142546004 ], [ 120.983003914431208, 24.506912308637617 ], [ 120.981885626464035, 24.507578618694279 ], [ 120.980029746547316, 24.508720860427424 ], [ 120.977174540882316, 24.510386638372506 ], [ 120.973415144499853, 24.511933492188572 ], [ 120.971011966697688, 24.512623666179557 ], [ 120.969489158576764, 24.513028257613691 ], [ 120.96984613308301, 24.513956228329413 ], [ 120.97013181335933, 24.516264291317164 ], [ 120.969989106508578, 24.517168493945888 ], [ 120.96963224448551, 24.517977530200412 ], [ 120.968847086240743, 24.518786590573271 ], [ 120.968252281274872, 24.519595639730628 ], [ 120.96749698511816, 24.520870706658858 ], [ 120.968806429788586, 24.520501126591181 ], [ 120.970100823754152, 24.520272627638615 ], [ 120.970443498005821, 24.520834162134754 ], [ 120.970871817938786, 24.521186299163446 ], [ 120.970986027798503, 24.521148221958022 ], [ 120.971252505945316, 24.520872190189053 ], [ 120.971814036898621, 24.520653248495712 ], [ 120.972661104496211, 24.520510435149223 ], [ 120.972690450694515, 24.520509290519573 ], [ 120.973393966265746, 24.520481841934327 ], [ 120.974003103247199, 24.520529398353109 ], [ 120.974583694878376, 24.520710206215202 ], [ 120.975059943023638, 24.520846518565389 ], [ 120.975126187340351, 24.520434158586202 ], [ 120.975449766715556, 24.520081980798722 ], [ 120.976096948276307, 24.519729785469313 ], [ 120.976315894369975, 24.52032939767961 ], [ 120.976696632309313, 24.520786233694622 ], [ 120.977391458738481, 24.521300160550094 ], [ 120.978419401045201, 24.521756961475965 ], [ 120.978800123570693, 24.52197585118418 ], [ 120.979133263776475, 24.522280403925645 ], [ 120.979371231379176, 24.522661104752054 ], [ 120.979523588168789, 24.523803238574949 ], [ 120.979544187431415, 24.525075285756081 ], [ 120.979561812473094, 24.526163662696771 ], [ 120.979657029811733, 24.526791835095857 ], [ 120.979771371934547, 24.528781058892406 ], [ 120.979428752569191, 24.529066613218717 ], [ 120.979581045235804, 24.529218889912062 ], [ 120.980485217739854, 24.529057037499751 ], [ 120.981322751601652, 24.528676278353466 ], [ 120.982217396840156, 24.528362141508488 ], [ 120.983892479359127, 24.527829051097783 ], [ 120.985025062312999, 24.527448275957642 ], [ 120.985757925574788, 24.527429200261977 ], [ 120.986119611177102, 24.527629055039629 ], [ 120.986842993765279, 24.528190568870194 ], [ 120.987337966848131, 24.528999558915437 ], [ 120.987575946790528, 24.529570617493754 ], [ 120.987357086419891, 24.530293985796177 ], [ 120.986538627120808, 24.531274367976291 ], [ 120.984264072489964, 24.534034667196188 ], [ 120.982572034036281, 24.53606038993534 ], [ 120.983037706735573, 24.535953761702295 ], [ 120.984979272912426, 24.53523029994648 ], [ 120.987697464920416, 24.534202225273944 ], [ 120.990804055214696, 24.534339113499847 ], [ 120.995326866130043, 24.53424749703963 ], [ 120.998205078212891, 24.535115368633672 ], [ 121.00003254700718, 24.536166039507567 ], [ 121.000946333233557, 24.537490874278006 ], [ 121.001065675033345, 24.538819733440818 ], [ 121.001632814130957, 24.538463713130444 ] ] ] ] } },
{ "type": "Feature", "properties": { "OBJECTID_1": 31, "OBJECTID_2": 31, "OBJECTID": 31, "番號": "12", "類型": null, "分區": "要", "Shape_Leng": 0.17923652897, "Shape_Area": 0.001427886 }, "geometry": { "type": "MultiPolygon", "coordinates": [ [ [ [ 121.029722911994455, 24.545832689332897 ], [ 121.030458110247096, 24.545640564997338 ], [ 121.03028458092129, 24.545302229590799 ], [ 121.029195678466394, 24.544129690245317 ], [ 121.02811752309816, 24.543225828236398 ], [ 121.028185722849898, 24.541695888498165 ], [ 121.028166533783846, 24.539316428506641 ], [ 121.029156333933827, 24.538669161357607 ], [ 121.029917741886649, 24.538535870173522 ], [ 121.030622041215665, 24.538364510179022 ], [ 121.031516714101244, 24.538478675575913 ], [ 121.031497769743865, 24.539887318337055 ], [ 121.031573951077419, 24.54049645664886 ], [ 121.031574036242844, 24.541809919506772 ], [ 121.031764436060527, 24.54251422959527 ], [ 121.032069121020996, 24.544341639500775 ], [ 121.031951331152683, 24.545310675523279 ], [ 121.032121340152244, 24.545295752837895 ], [ 121.032646696927969, 24.544975925336558 ], [ 121.033868780207385, 24.545112915742344 ], [ 121.034999477182907, 24.545010061859749 ], [ 121.03652991013935, 24.544770128678351 ], [ 121.039316648407564, 24.544039006557171 ], [ 121.041144019270675, 24.543582050813733 ], [ 121.042069118523557, 24.543239358848826 ], [ 121.044079202401136, 24.542371222171742 ], [ 121.04546112748541, 24.541640176288404 ], [ 121.047242770452414, 24.54052078138568 ], [ 121.049538322290843, 24.53867038771001 ], [ 121.051319937117583, 24.537116978127759 ], [ 121.05510020345983, 24.534524111676877 ], [ 121.056082368870335, 24.533564659674642 ], [ 121.057213007471617, 24.532548092664953 ], [ 121.058880386156787, 24.530640626178212 ], [ 121.059988162319456, 24.529315681939746 ], [ 121.061187301665683, 24.527887940227238 ], [ 121.062489265963919, 24.526996999267546 ], [ 121.066155319421568, 24.524381296381961 ], [ 121.067697145977419, 24.523730191667649 ], [ 121.068351382182968, 24.523331903962191 ], [ 121.067996829615183, 24.523251343014991 ], [ 121.067606592866284, 24.523080043292744 ], [ 121.067578022529872, 24.522813545100657 ], [ 121.067673181883762, 24.522547040201495 ], [ 121.068044338229754, 24.522014020600992 ], [ 121.068120453553988, 24.521604749337843 ], [ 121.068367887942387, 24.521204986315226 ], [ 121.068377320552102, 24.519882005529603 ], [ 121.068691356910492, 24.519149114673645 ], [ 121.068824552501354, 24.518340090709074 ], [ 121.069071969020584, 24.517664309525198 ], [ 121.069366948414711, 24.516588777055421 ], [ 121.069357321946526, 24.514904119605969 ], [ 121.069614259845821, 24.514275927341629 ], [ 121.069718916548027, 24.513685815235277 ], [ 121.06998536724538, 24.513000516398055 ], [ 121.070032901165504, 24.512153425176731 ], [ 121.070289800872544, 24.510935127383714 ], [ 121.070384934361982, 24.510268872885337 ], [ 121.070451508901343, 24.509497923545197 ], [ 121.070565689165164, 24.509002989789437 ], [ 121.071003387764904, 24.507213610828206 ], [ 121.071174643051833, 24.506223745514792 ], [ 121.071307740754165, 24.503901384488529 ], [ 121.07142193703956, 24.503653914519106 ], [ 121.072145129136771, 24.501274413679603 ], [ 121.072579062136967, 24.500120826935799 ], [ 121.073184317281203, 24.499024338773076 ], [ 121.073822556588397, 24.498264426442059 ], [ 121.073703760574048, 24.498209787363084 ], [ 121.073094616974458, 24.498057535432292 ], [ 121.072494976273731, 24.49766733583153 ], [ 121.072076178182201, 24.497381822824902 ], [ 121.071876257412129, 24.496620406352235 ], [ 121.071609698045918, 24.495640083184284 ], [ 121.071526882146983, 24.495454806618365 ], [ 121.071079550064809, 24.495464348368412 ], [ 121.070118261742678, 24.495473918849228 ], [ 121.069471063061883, 24.495559614332556 ], [ 121.068757242685948, 24.495673866902784 ], [ 121.067672219459553, 24.495616818700956 ], [ 121.066815621727301, 24.495559758129261 ], [ 121.066339733155345, 24.495502676941413 ], [ 121.065254707460099, 24.495407556834188 ], [ 121.063950774838347, 24.495302931054194 ], [ 121.063417783522809, 24.495312478342527 ], [ 121.063075138952684, 24.495207800506915 ], [ 121.062009152009651, 24.495160268799765 ], [ 121.061314350683119, 24.495017539027504 ], [ 121.060943158576222, 24.494998523175301 ], [ 121.060000879443834, 24.494598824589634 ], [ 121.05986762591985, 24.494513171367039 ], [ 121.059125242934186, 24.494494175614612 ], [ 121.058382890109598, 24.494941554858251 ], [ 121.057573914357235, 24.495398455237954 ], [ 121.056774440606276, 24.495617408841657 ], [ 121.056127243750936, 24.495731657807934 ], [ 121.055679919938129, 24.495855414376845 ], [ 121.055013681857218, 24.495884003935732 ], [ 121.054537795449889, 24.495874511280583 ], [ 121.053795424766534, 24.49604587326084 ], [ 121.052834148383511, 24.496226764623309 ], [ 121.051987088326911, 24.496483791814807 ], [ 121.05144458268164, 24.496540928154229 ], [ 121.05018824895626, 24.496607621577674 ], [ 121.049426828705776, 24.4965505558527 ], [ 121.04825614927698, 24.49654110082524 ], [ 121.046961740763791, 24.496541170924775 ], [ 121.046305018829614, 24.496550724916322 ], [ 121.04610019825698, 24.496492966247494 ], [ 121.046025978680376, 24.497167059030833 ], [ 121.04560351489836, 24.499063036601484 ], [ 121.0451810703413, 24.501255971271913 ], [ 121.045124005570784, 24.501895573223486 ], [ 121.046174801217575, 24.502523694671751 ], [ 121.045763755745668, 24.504373986064877 ], [ 121.044735917852606, 24.505527604155393 ], [ 121.043605293901152, 24.506772599857467 ], [ 121.042805859186586, 24.507594985209618 ], [ 121.042440408638328, 24.508040440207143 ], [ 121.041880815331922, 24.508794284215302 ], [ 121.041686675850727, 24.509125515110597 ], [ 121.040327617683857, 24.510222045109042 ], [ 121.039368271696773, 24.510827431785156 ], [ 121.038077729083, 24.511741214904614 ], [ 121.037358226720698, 24.512312325312358 ], [ 121.036912817048517, 24.512609305651878 ], [ 121.035645138498793, 24.51384288743122 ], [ 121.035211175199848, 24.514528195396831 ], [ 121.034754413073401, 24.515887368555603 ], [ 121.034434669482138, 24.516686885159114 ], [ 121.033829429146124, 24.51801180219384 ], [ 121.033030056580415, 24.519793586357594 ], [ 121.03209363295349, 24.521632484921447 ], [ 121.031419835499847, 24.522511970477566 ], [ 121.029375577328466, 24.524762100152504 ], [ 121.027696788196209, 24.526852310535471 ], [ 121.026748884908827, 24.527788917936032 ], [ 121.025903763080535, 24.52857704166135 ], [ 121.024944429682591, 24.529376592076545 ], [ 121.024236364848207, 24.530198972554665 ], [ 121.024007994998684, 24.531044169807927 ], [ 121.024270771396573, 24.532403304004646 ], [ 121.025207441465568, 24.534367737271701 ], [ 121.025584411098222, 24.535418486766023 ], [ 121.025767251644368, 24.536960367580612 ], [ 121.026132856171571, 24.538890567636845 ], [ 121.02654411617192, 24.540352486309999 ], [ 121.027092428146958, 24.541757290582396 ], [ 121.027732091300706, 24.542887976468474 ], [ 121.028088799033142, 24.544111523735435 ], [ 121.028835074529169, 24.545451595735091 ], [ 121.029168412646584, 24.545951544173086 ], [ 121.029722911994455, 24.545832689332897 ] ] ] ] } },
{ "type": "Feature", "properties": { "OBJECTID_1": 32, "OBJECTID_2": 32, "OBJECTID": 32, "番號": "13", "類型": null, "分區": "要", "Shape_Leng": 0.15616799728, "Shape_Area": 0.00092826401 }, "geometry": { "type": "MultiPolygon", "coordinates": [ [ [ [ 121.028603644225342, 24.546072600212394 ], [ 121.029168412646584, 24.545951544173086 ], [ 121.028835074529169, 24.545451595735091 ], [ 121.028088799033142, 24.544111523735435 ], [ 121.027732091300706, 24.542887976468474 ], [ 121.027092428146958, 24.541757290582396 ], [ 121.02654411617192, 24.540352486309999 ], [ 121.026132856171571, 24.538890567636845 ], [ 121.025767251644368, 24.536960367580612 ], [ 121.025584411098222, 24.535418486766023 ], [ 121.025207441465568, 24.534367737271701 ], [ 121.024270771396573, 24.532403304004646 ], [ 121.024007994998684, 24.531044169807927 ], [ 121.024236364848207, 24.530198972554665 ], [ 121.024944429682591, 24.529376592076545 ], [ 121.025903763080535, 24.52857704166135 ], [ 121.026748884908827, 24.527788917936032 ], [ 121.027696788196209, 24.526852310535471 ], [ 121.029375577328466, 24.524762100152504 ], [ 121.031419835499847, 24.522511970477566 ], [ 121.03209363295349, 24.521632484921447 ], [ 121.033030056580415, 24.519793586357594 ], [ 121.033829429146124, 24.51801180219384 ], [ 121.034434669482138, 24.516686885159114 ], [ 121.034754413073401, 24.515887368555603 ], [ 121.035211175199848, 24.514528195396831 ], [ 121.035645138498793, 24.51384288743122 ], [ 121.036912817048517, 24.512609305651878 ], [ 121.037358226720698, 24.512312325312358 ], [ 121.038077729083, 24.511741214904614 ], [ 121.039368271696773, 24.510827431785156 ], [ 121.040327617683857, 24.510222045109042 ], [ 121.041686675850727, 24.509125515110597 ], [ 121.041880815331922, 24.508794284215302 ], [ 121.042440408638328, 24.508040440207143 ], [ 121.042805859186586, 24.507594985209618 ], [ 121.043605293901152, 24.506772599857467 ], [ 121.044735917852606, 24.505527604155393 ], [ 121.045763755745668, 24.504373986064877 ], [ 121.046174801217575, 24.502523694671751 ], [ 121.045124005570784, 24.501895573223486 ], [ 121.0451810703413, 24.501255971271913 ], [ 121.04560351489836, 24.499063036601484 ], [ 121.046025978680376, 24.497167059030833 ], [ 121.04610019825698, 24.496492966247494 ], [ 121.04593382206744, 24.496446048624616 ], [ 121.045277098284728, 24.496427048236615 ], [ 121.044896385076839, 24.496350925940302 ], [ 121.043697115005628, 24.495760884426577 ], [ 121.042964231813585, 24.495456353357582 ], [ 121.042669166752191, 24.495208905539375 ], [ 121.042136162481071, 24.495018577567002 ], [ 121.041726897425136, 24.494961491869574 ], [ 121.041089199470377, 24.494790205519561 ], [ 121.040194519516177, 24.494552307697656 ], [ 121.039461641243378, 24.494323919539589 ], [ 121.0386145608432, 24.494266858449233 ], [ 121.03782459180313, 24.494276418754612 ], [ 121.036730043713789, 24.494105157141714 ], [ 121.036254148051341, 24.49395289708167 ], [ 121.035797280686054, 24.493686422067597 ], [ 121.035416564391994, 24.493562710333787 ], [ 121.035083444861115, 24.493562728372417 ], [ 121.034540932137531, 24.49352468674174 ], [ 121.034169734749696, 24.493410492918585 ], [ 121.03367480339999, 24.493258233888014 ], [ 121.033198913889649, 24.493201152695512 ], [ 121.032723009889679, 24.492906125229091 ], [ 121.032466018370073, 24.492706263878599 ], [ 121.031847348699969, 24.492420762568464 ], [ 121.031276279485624, 24.492316097093973 ], [ 121.030714730125112, 24.492249502112216 ], [ 121.029972352009565, 24.492306650172395 ], [ 121.029382277883542, 24.492677877379652 ], [ 121.029020616965227, 24.492858736277338 ], [ 121.028411499767401, 24.493115751491608 ], [ 121.027945168553359, 24.493677329741573 ], [ 121.027697778756306, 24.494781413181116 ], [ 121.027402801100394, 24.495885499199698 ], [ 121.02733620587199, 24.496323323453584 ], [ 121.027136369421783, 24.496865851321974 ], [ 121.026565386111599, 24.49810320217286 ], [ 121.025651740013529, 24.498940822846038 ], [ 121.02499506820412, 24.499711803314707 ], [ 121.024776192379818, 24.500197225256297 ], [ 121.024576376589692, 24.501072878280585 ], [ 121.024357510620789, 24.501710586058003 ], [ 121.024100564045682, 24.502205527591396 ], [ 121.024062509587253, 24.502452993460377 ], [ 121.023834092355727, 24.502567220659806 ], [ 121.023805608588575, 24.50365225630587 ], [ 121.023824688618845, 24.504337540631891 ], [ 121.023567745411086, 24.504870554076355 ], [ 121.023453560534122, 24.505308380915306 ], [ 121.022777853053967, 24.506079363329647 ], [ 121.022463781850249, 24.506288772245586 ], [ 121.021911769862854, 24.506517230906766 ], [ 121.021531064638268, 24.506564840969091 ], [ 121.021102786050292, 24.506850398991858 ], [ 121.020664980545959, 24.50700270854847 ], [ 121.020293796076459, 24.507088389105039 ], [ 121.019798886263374, 24.507269255238121 ], [ 121.019161220916047, 24.507602414043991 ], [ 121.018333217098643, 24.508164011919824 ], [ 121.017809772071573, 24.508620896894772 ], [ 121.017048398580073, 24.509287187565153 ], [ 121.016629636151222, 24.509553710022647 ], [ 121.016410742472559, 24.50976311468612 ], [ 121.016030041556235, 24.509877349243773 ], [ 121.015696927271662, 24.509972546167742 ], [ 121.015259131288246, 24.510258104713447 ], [ 121.01489746790466, 24.51040089172259 ], [ 121.014469188697916, 24.510676933125161 ], [ 121.014059937499226, 24.510848276196022 ], [ 121.013536465643668, 24.510876858044469 ], [ 121.013117684112004, 24.510848327255186 ], [ 121.012537082684773, 24.510515234455013 ], [ 121.012051665279245, 24.510296350426394 ], [ 121.011794674966481, 24.510115525029857 ], [ 121.011461553568139, 24.510086989598168 ], [ 121.011090349092257, 24.509877616907712 ], [ 121.010823850011604, 24.509830041910959 ], [ 121.010059229426844, 24.509695566312708 ], [ 121.009027428246156, 24.512211069833512 ], [ 121.007980730127557, 24.516075372356038 ], [ 121.007866759436965, 24.519806374455985 ], [ 121.008266692088625, 24.522718814327661 ], [ 121.008425874932584, 24.524101713378734 ], [ 121.010910695433893, 24.524064491509357 ], [ 121.011607430665947, 24.524669788468891 ], [ 121.012464103255127, 24.525880412387707 ], [ 121.012932447161461, 24.526999686214317 ], [ 121.013834886093349, 24.529466662682676 ], [ 121.015251390909967, 24.533623981037874 ], [ 121.016348025782023, 24.5366163328376 ], [ 121.017387527708152, 24.539208938071795 ], [ 121.018461255577662, 24.541219048597799 ], [ 121.019557786824322, 24.542612401757118 ], [ 121.020231682579293, 24.543263386396408 ], [ 121.020848476040953, 24.543960058804949 ], [ 121.021191143502122, 24.544416896832477 ], [ 121.022219110173211, 24.545250604544147 ], [ 121.023635384783617, 24.545855862424755 ], [ 121.024960261392422, 24.546027112330471 ], [ 121.025462806085912, 24.546175563170202 ], [ 121.027176000254912, 24.546266841354957 ], [ 121.028603644225342, 24.546072600212394 ] ] ] ] } },
{ "type": "Feature", "properties": { "OBJECTID_1": 33, "OBJECTID_2": 33, "OBJECTID": 33, "番號": "6", "類型": null, "分區": "要", "Shape_Leng": 0.11186835009, "Shape_Area": 0.00019837816 }, "geometry": { "type": "MultiPolygon", "coordinates": [ [ [ [ 120.979845439352133, 24.546956124989858 ], [ 120.979868225512078, 24.546088096011488 ], [ 120.980050960783757, 24.546019557731597 ], [ 120.981661361834426, 24.546076577314444 ], [ 120.982712114034683, 24.546030834720696 ], [ 120.983271736791494, 24.545745269505744 ], [ 120.983934141906403, 24.545311219694479 ], [ 120.984505172560375, 24.544820066973955 ], [ 120.985784348813837, 24.544751469201302 ], [ 120.986515307986295, 24.544728586751116 ], [ 120.987234845766835, 24.544717126314616 ], [ 120.987988651104558, 24.544751349593902 ], [ 120.988776737915657, 24.545059685362816 ], [ 120.989507712480631, 24.545288074473554 ], [ 120.990387174330735, 24.545676354139406 ], [ 120.990460785179039, 24.545754286318498 ], [ 120.991839541707606, 24.545459862402865 ], [ 120.993620153281597, 24.544560773499917 ], [ 120.993324203442583, 24.544289011650445 ], [ 120.993143364819204, 24.544260467978464 ], [ 120.992610353326072, 24.543946407673939 ], [ 120.9926579232921, 24.5436703877794 ], [ 120.992895848940066, 24.543403875084998 ], [ 120.993067157207705, 24.543232544885345 ], [ 120.993286067538833, 24.543280122447921 ], [ 120.993771456597528, 24.543061184868186 ], [ 120.994237823548758, 24.543051642036342 ], [ 120.994494800313802, 24.543023074609621 ], [ 120.994808905176711, 24.543346664319309 ], [ 120.994827959766454, 24.543638147143156 ], [ 120.994689970489389, 24.543899896099735 ], [ 120.994356862681272, 24.544095029348416 ], [ 120.993961878120928, 24.544099809993586 ], [ 120.993833400064474, 24.54426637955487 ], [ 120.993853861804638, 24.544442767030709 ], [ 120.994780418921351, 24.543974918956394 ], [ 120.996322187924918, 24.542432943571718 ], [ 120.997692656969832, 24.541176513229495 ], [ 120.998948928509719, 24.540148517859837 ], [ 121.001065675033345, 24.538819733440818 ], [ 121.000946333233557, 24.537490874278006 ], [ 121.00003254700718, 24.536166039507567 ], [ 120.998205078212891, 24.535115368633672 ], [ 120.995326866130043, 24.53424749703963 ], [ 120.990804055214696, 24.534339113499847 ], [ 120.987697464920416, 24.534202225273944 ], [ 120.984979272912426, 24.53523029994648 ], [ 120.983037706735573, 24.535953761702295 ], [ 120.982572034036281, 24.53606038993534 ], [ 120.981457789758849, 24.536315526074116 ], [ 120.980563148847551, 24.53669628833287 ], [ 120.978945171260648, 24.537210339727011 ], [ 120.977448835574151, 24.537980001619026 ], [ 120.977526346214034, 24.538036124122822 ], [ 120.977891850827334, 24.538424432589739 ], [ 120.977766240968506, 24.538789924910862 ], [ 120.978017515644567, 24.538892703825251 ], [ 120.978405866584765, 24.539326696627814 ], [ 120.978314512119269, 24.539577973150742 ], [ 120.977777744403838, 24.540057701718084 ], [ 120.977183863120587, 24.540423219445092 ], [ 120.976944041522273, 24.540811560752175 ], [ 120.97661286725868, 24.541451177684699 ], [ 120.977035466347289, 24.541645318454979 ], [ 120.977069753745781, 24.542010802102894 ], [ 120.976966983234675, 24.542342029004988 ], [ 120.976635773421108, 24.542433418127697 ], [ 120.976247442472712, 24.542307803862887 ], [ 120.976190348902477, 24.542501970659419 ], [ 120.976715737602362, 24.542673263963231 ], [ 120.97734393368863, 24.543095822357181 ], [ 120.977697980199096, 24.542901638549555 ], [ 120.978029187207497, 24.542753142456874 ], [ 120.978531723070603, 24.542764536584482 ], [ 120.978668792672664, 24.542992957027305 ], [ 120.978440377655289, 24.543141448442011 ], [ 120.977686590817527, 24.543392760009695 ], [ 120.977298270240041, 24.54342704526162 ], [ 120.976727210684842, 24.543472762722267 ], [ 120.976064773703584, 24.543415690795985 ], [ 120.975585092154077, 24.543587038633447 ], [ 120.975464371262234, 24.543707775614372 ], [ 120.975856296947867, 24.544391045094319 ], [ 120.97645316243117, 24.544432176491082 ], [ 120.97702425384, 24.544877580770077 ], [ 120.977561075783726, 24.545220193462058 ], [ 120.977972236602895, 24.545151642787211 ], [ 120.978451939631753, 24.545311517172841 ], [ 120.978840289840207, 24.545734088577476 ], [ 120.978897446378568, 24.546510741167911 ], [ 120.979068797461125, 24.547013274105232 ], [ 120.979845439352133, 24.546956124989858 ] ], [ [ 120.988565259222213, 24.542928217447162 ], [ 120.988412964418316, 24.542756904803781 ], [ 120.987020585473147, 24.542668293676453 ], [ 120.986909127595752, 24.542166879851688 ], [ 120.986680678265145, 24.541786178520134 ], [ 120.986071528339579, 24.541538747737054 ], [ 120.985424323986351, 24.541538782850708 ], [ 120.984891340594601, 24.541672061662002 ], [ 120.985471894237506, 24.541253244524857 ], [ 120.986223757721589, 24.540701169100057 ], [ 120.98658542481698, 24.54061548812588 ], [ 120.987813216136473, 24.540710600396306 ], [ 120.987994031309611, 24.540377465402887 ], [ 120.9881558311627, 24.540358421568222 ], [ 120.988888717586946, 24.540710542047773 ], [ 120.989174270888441, 24.541043650839526 ], [ 120.989259954816106, 24.541424359914927 ], [ 120.989183870987205, 24.542319042283928 ], [ 120.988803205859597, 24.542985312405026 ], [ 120.988565259222213, 24.542928217447162 ] ], [ [ 120.980094360706559, 24.54086330501805 ], [ 120.980218132057416, 24.54149147586946 ], [ 120.979866011359448, 24.542024494557538 ], [ 120.978695718617928, 24.541879178995899 ], [ 120.979199724401241, 24.541301174256994 ], [ 120.979970614942999, 24.540615846996982 ], [ 120.980094360706559, 24.54086330501805 ] ], [ [ 120.983654044216522, 24.541767306773664 ], [ 120.983575809225357, 24.541635560293706 ], [ 120.984282186346064, 24.541358005481175 ], [ 120.984767574182555, 24.541120032842365 ], [ 120.98480565296228, 24.54123424471484 ], [ 120.984710489006318, 24.541443642697804 ], [ 120.984301244869201, 24.541710164690556 ], [ 120.983920543936947, 24.541824399284067 ], [ 120.983654044216522, 24.541767306773664 ] ], [ [ 120.981265132293842, 24.542290918438283 ], [ 120.981417426483091, 24.54245271355574 ], [ 120.98166488743216, 24.542462217657881 ], [ 120.981788610023585, 24.542338478578078 ], [ 120.982216905615218, 24.542328937811856 ], [ 120.982559552122694, 24.542462169116423 ], [ 120.982531007066243, 24.54258590303197 ], [ 120.98212174934865, 24.542643032206524 ], [ 120.981769592236631, 24.542614497828751 ], [ 120.981531661026395, 24.54279535007489 ], [ 120.980989142336156, 24.542652611186956 ], [ 120.980608433376943, 24.542643114314561 ], [ 120.980027861211852, 24.542776395710757 ], [ 120.97989732248891, 24.542896072022529 ], [ 120.979704252240779, 24.542671716857789 ], [ 120.980018317893879, 24.542376646540585 ], [ 120.980408542395622, 24.542357589412006 ], [ 120.981112845511348, 24.542243337259656 ], [ 120.981265132293842, 24.542290918438283 ] ], [ [ 120.988060585203669, 24.539303134918775 ], [ 120.988365108493866, 24.538636869830746 ], [ 120.989259743214404, 24.53816092869458 ], [ 120.9898308069492, 24.538179932772721 ], [ 120.990230576886816, 24.538579660764999 ], [ 120.990192539737052, 24.539093627343401 ], [ 120.989164663184667, 24.539664753690214 ], [ 120.988290977434588, 24.539842504484685 ], [ 120.988060585203669, 24.539303134918775 ] ], [ [ 120.987844791169167, 24.538384675012136 ], [ 120.987559260701943, 24.538403725558183 ], [ 120.98721835132794, 24.538209782705298 ], [ 120.987283207182969, 24.537785080505664 ], [ 120.987711484539219, 24.537480486473427 ], [ 120.988101701012411, 24.537337697884105 ], [ 120.988501449970272, 24.537413818224852 ], [ 120.988482434929224, 24.537718390954876 ], [ 120.988320650837778, 24.537994417046065 ], [ 120.987844791169167, 24.538384675012136 ] ] ] ] } },
{ "type": "Feature", "properties": { "OBJECTID_1": 37, "OBJECTID_2": 37, "OBJECTID": 37, "番號": "11", "類型": null, "分區": "要", "Shape_Leng": 0.13701760944, "Shape_Area": 0.00098702455 }, "geometry": { "type": "MultiPolygon", "coordinates": [ [ [ [ 121.045103836221912, 24.557844995011035 ], [ 121.04592231597826, 24.557169183659894 ], [ 121.046978740822311, 24.556540947931506 ], [ 121.048225534290964, 24.556122095566842 ], [ 121.049329584330167, 24.556055410251847 ], [ 121.050110047065218, 24.556217171248235 ], [ 121.051471095161403, 24.556464562072549 ], [ 121.05317478257524, 24.556721450925266 ], [ 121.055820723602281, 24.556997324584678 ], [ 121.059456498280753, 24.557130377111193 ], [ 121.061055459589312, 24.556920898430644 ], [ 121.062460859854426, 24.556323879940795 ], [ 121.062231208051628, 24.555802688418581 ], [ 121.062526256473376, 24.55579315397803 ], [ 121.063915831662399, 24.555640793628797 ], [ 121.065096024108428, 24.555583622612204 ], [ 121.065905028152656, 24.555564542749583 ], [ 121.066847237563493, 24.554888724718417 ], [ 121.067903656465731, 24.554155793531901 ], [ 121.068522284144365, 24.55379408134657 ], [ 121.069055269889986, 24.553698874454081 ], [ 121.069369345680116, 24.553575125063283 ], [ 121.069930861033725, 24.553118238013383 ], [ 121.070225900805085, 24.552975454602699 ], [ 121.070625628071866, 24.552718450692701 ], [ 121.071091967428458, 24.552271086337161 ], [ 121.072034171896107, 24.55151912540947 ], [ 121.072205486636321, 24.551462009153553 ], [ 121.072357764740957, 24.551376340451135 ], [ 121.072814579632663, 24.550833798650306 ], [ 121.073309474251559, 24.550434022181921 ], [ 121.074613321937619, 24.549215667541564 ], [ 121.074936907990661, 24.548968185295859 ], [ 121.075993270430459, 24.547378647962539 ], [ 121.07652621542772, 24.546655262738703 ], [ 121.07744933607168, 24.545160911510123 ], [ 121.077896605804398, 24.544190066254849 ], [ 121.078086954374484, 24.544104395490788 ], [ 121.078648454920099, 24.543419080631043 ], [ 121.07887686868294, 24.543238228939273 ], [ 121.079276582708246, 24.542790868217512 ], [ 121.079666790733128, 24.542505312259145 ], [ 121.080361547896672, 24.541953239144465 ], [ 121.081170521057004, 24.541458267693081 ], [ 121.081275206703211, 24.5413154937205 ], [ 121.081446489970617, 24.540772967430968 ], [ 121.081370317905112, 24.540306597474736 ], [ 121.081256063651693, 24.539659390285031 ], [ 121.081265512836026, 24.538593390829668 ], [ 121.08117028534852, 24.537822450266805 ], [ 121.081084599598114, 24.537413187784342 ], [ 121.080932254244843, 24.536461411919582 ], [ 121.080875054944556, 24.535024219955876 ], [ 121.080808386374386, 24.534329420754361 ], [ 121.080437114095403, 24.533073085121977 ], [ 121.079894517546094, 24.531740616767955 ], [ 121.079599416093814, 24.530931616037023 ], [ 121.079570816148276, 24.530208261291733 ], [ 121.079256679300414, 24.52938974316632 ], [ 121.078980636070938, 24.528942419099131 ], [ 121.07837145944751, 24.528266685262654 ], [ 121.077514819185978, 24.527552893836074 ], [ 121.076610596334106, 24.526934282950407 ], [ 121.075449391499347, 24.526249060611025 ], [ 121.075278063189842, 24.526096784078504 ], [ 121.073936028399899, 24.525516268828046 ], [ 121.071261468186151, 24.524231504560888 ], [ 121.070956898061198, 24.524174414113329 ], [ 121.070052687531359, 24.523746160042439 ], [ 121.069424514062945, 24.523670051184293 ], [ 121.068463209711396, 24.523432157035256 ], [ 121.068415615405641, 24.523346499177176 ], [ 121.068351382182968, 24.523331903962191 ], [ 121.067697145977419, 24.523730191667649 ], [ 121.066155319421568, 24.524381296381961 ], [ 121.062489265963919, 24.526996999267546 ], [ 121.061187301665683, 24.527887940227238 ], [ 121.059988162319456, 24.529315681939746 ], [ 121.058880386156787, 24.530640626178212 ], [ 121.057213007471617, 24.532548092664953 ], [ 121.056082368870335, 24.533564659674642 ], [ 121.05510020345983, 24.534524111676877 ], [ 121.051319937117583, 24.537116978127759 ], [ 121.049538322290843, 24.53867038771001 ], [ 121.047242770452414, 24.54052078138568 ], [ 121.04546112748541, 24.541640176288404 ], [ 121.044079202401136, 24.542371222171742 ], [ 121.042069118523557, 24.543239358848826 ], [ 121.041144019270675, 24.543582050813733 ], [ 121.039316648407564, 24.544039006557171 ], [ 121.03652991013935, 24.544770128678351 ], [ 121.034999477182907, 24.545010061859749 ], [ 121.033868780207385, 24.545112915742344 ], [ 121.032646696927969, 24.544975925336558 ], [ 121.032121340152244, 24.545295752837895 ], [ 121.031951331152683, 24.545310675523279 ], [ 121.03147033190082, 24.545352895124012 ], [ 121.030990648936267, 24.545501400156102 ], [ 121.030458110247096, 24.545640564997338 ], [ 121.03074148883357, 24.546193075235681 ], [ 121.031990322107859, 24.547883377200378 ], [ 121.032584293192045, 24.548903657554735 ], [ 121.033536127550633, 24.549870619253717 ], [ 121.034373768956499, 24.551149772480773 ], [ 121.035279916013977, 24.552093893867216 ], [ 121.035335291528753, 24.552157536797644 ], [ 121.035942398594329, 24.552855285292537 ], [ 121.036018580942553, 24.553479651824937 ], [ 121.03597017368655, 24.55400444136691 ], [ 121.035927274424495, 24.554469512914068 ], [ 121.035843582274637, 24.555444145367019 ], [ 121.035874092552646, 24.556266484886557 ], [ 121.036133019540458, 24.556966984417933 ], [ 121.036462216735231, 24.557625285732534 ], [ 121.037565812491238, 24.557902511160563 ], [ 121.038622279021553, 24.557902453812027 ], [ 121.039507431132634, 24.557978548680548 ], [ 121.040830397679017, 24.558054619782798 ], [ 121.042311839992692, 24.55806683399965 ], [ 121.04312416780455, 24.558073531223407 ], [ 121.044751164958726, 24.558276818335667 ], [ 121.044875440645015, 24.558292346482038 ], [ 121.045103836221912, 24.557844995011035 ] ] ] ] } },
{ "type": "Feature", "properties": { "OBJECTID_1": 43, "OBJECTID_2": 43, "OBJECTID": 43, "番號": "5", "類型": null, "分區": "要", "Shape_Leng": 0.11909006977, "Shape_Area": 0.00024123955 }, "geometry": { "type": "MultiPolygon", "coordinates": [ [ [ [ 121.022279853262461, 24.572036635024332 ], [ 121.023972423652438, 24.571616667502486 ], [ 121.021645694181686, 24.570538570293486 ], [ 121.019047175135526, 24.567711911207219 ], [ 121.017362399933589, 24.565541933489204 ], [ 121.016191583853598, 24.563429034818874 ], [ 121.015077931401663, 24.562201293712487 ], [ 121.01270791205252, 24.56051676328126 ], [ 121.010280810633986, 24.559203432117688 ], [ 121.007853708306854, 24.557890100942423 ], [ 121.005226766819803, 24.557062190724722 ], [ 121.004329240291284, 24.55697467513026 ], [ 121.00328229505169, 24.557022321402609 ], [ 121.001830696227245, 24.554738116999804 ], [ 121.00140229260461, 24.55309631133672 ], [ 121.001140429794518, 24.551168961795597 ], [ 121.001187841039368, 24.548432578598643 ], [ 121.001266359666204, 24.541054338865699 ], [ 121.001065675033345, 24.538819733440818 ], [ 120.998948928509719, 24.540148517859837 ], [ 120.997692656969832, 24.541176513229495 ], [ 120.996322187924918, 24.542432943571718 ], [ 120.994780418921351, 24.543974918956394 ], [ 120.993853861804638, 24.544442767030709 ], [ 120.993620153281597, 24.544560773499917 ], [ 120.991839541707606, 24.545459862402865 ], [ 120.990460785179039, 24.545754286318498 ], [ 120.990775523786795, 24.546087504140115 ], [ 120.99118673126469, 24.546738503067427 ], [ 120.991460893591295, 24.547537987549106 ], [ 120.99171220959316, 24.548291786795907 ], [ 120.99179222193635, 24.549274024112528 ], [ 120.991963579844651, 24.549867929085252 ], [ 120.992066468743985, 24.551375550171272 ], [ 120.992329218743706, 24.55231209199518 ], [ 120.992671893496365, 24.552894565375492 ], [ 120.992797571671858, 24.553568422582543 ], [ 120.992866176883041, 24.554767667898421 ], [ 120.993117509950451, 24.555784160096565 ], [ 120.993448776977758, 24.556560798686586 ], [ 120.994134091975539, 24.557166096250871 ], [ 120.995516108203859, 24.55785130574764 ], [ 120.99624708128303, 24.558056852050665 ], [ 120.996635412959236, 24.558193887693104 ], [ 120.997012338970791, 24.558570774120735 ], [ 120.997434968442988, 24.559233193807291 ], [ 120.997766232510145, 24.559964145915927 ], [ 120.998314490344143, 24.560546608125289 ], [ 120.999125428510609, 24.560991999348108 ], [ 121.000176210317477, 24.561403113366715 ], [ 121.00126129511402, 24.562419561179848 ], [ 121.002483457093462, 24.563767221959303 ], [ 121.003294394514526, 24.564201191780516 ], [ 121.00423092469758, 24.564006976338156 ], [ 121.004973277629048, 24.563561500783045 ], [ 121.005441537899415, 24.563390154455057 ], [ 121.006378066595147, 24.563173096228489 ], [ 121.007223229885909, 24.563024572223696 ], [ 121.008056974167914, 24.562910313019831 ], [ 121.009815838351983, 24.562784581293332 ], [ 121.010923708652271, 24.562910157366652 ], [ 121.01207727039025, 24.563149943992709 ], [ 121.01307093726885, 24.563412582985528 ], [ 121.013790500951828, 24.563800872186754 ], [ 121.014327327899451, 24.564234856882443 ], [ 121.014818482685712, 24.564851586349736 ], [ 121.015355351903025, 24.565936591357175 ], [ 121.016349158045799, 24.568357878158228 ], [ 121.017000260354635, 24.569762676867168 ], [ 121.017708430410053, 24.570562137732399 ], [ 121.018462269813185, 24.571121745958049 ], [ 121.019627271311435, 24.571647067670849 ], [ 121.020415352151616, 24.571864032237464 ], [ 121.020739686864459, 24.57227367301547 ], [ 121.022279853262461, 24.572036635024332 ] ], [ [ 120.992443094811378, 24.54784992445656 ], [ 120.992089009791187, 24.547450193992507 ], [ 120.992043276707719, 24.546707804084761 ], [ 120.992283101094301, 24.546376569754344 ], [ 120.992705676462748, 24.546205225918534 ], [ 120.993368108971808, 24.546193768579041 ], [ 120.994190448939207, 24.546353623467365 ], [ 120.994624442574334, 24.546136593438177 ], [ 120.995355435067538, 24.546627674597442 ], [ 120.99630343985524, 24.547255800702459 ], [ 120.996600420934769, 24.547689798442899 ], [ 120.996006523230974, 24.547815466900474 ], [ 120.995549693803056, 24.548135290712551 ], [ 120.995287021770437, 24.548386576526365 ], [ 120.993905047052493, 24.54834096594827 ], [ 120.993261357575975, 24.548457481108908 ], [ 120.992443094811378, 24.54784992445656 ] ] ] ] } },
{ "type": "Feature", "properties": { "OBJECTID_1": 44, "OBJECTID_2": 44, "OBJECTID": 44, "番號": "15", "類型": null, "分區": "要", "Shape_Leng": 0.11822147937, "Shape_Area": 0.00052622755 }, "geometry": { "type": "MultiPolygon", "coordinates": [ [ [ [ 121.034538841721769, 24.573066796667081 ], [ 121.033453753767802, 24.572000856535883 ], [ 121.031911799949839, 24.570706513355184 ], [ 121.030369832196683, 24.569183741409944 ], [ 121.029037257086316, 24.567718065949727 ], [ 121.028675483122512, 24.566157157993253 ], [ 121.028085272526994, 24.564424942444354 ], [ 121.027875756644548, 24.562483313419609 ], [ 121.027533026142649, 24.561055654310369 ], [ 121.027437717650017, 24.559037876166208 ], [ 121.026580971239767, 24.556677496668428 ], [ 121.025077015953727, 24.554260045329187 ], [ 121.023934796285005, 24.552813394548675 ], [ 121.022754512324525, 24.551461924702984 ], [ 121.021498127278704, 24.550738636497751 ], [ 121.019708728915944, 24.549672734523792 ], [ 121.018109704794583, 24.548930429848717 ], [ 121.016263196897697, 24.547826459950524 ], [ 121.014302465570793, 24.54655117444598 ], [ 121.013236366427137, 24.544761877696317 ], [ 121.012284447845047, 24.542496681264012 ], [ 121.010970797407424, 24.539317792093119 ], [ 121.009676005003868, 24.53339776122181 ], [ 121.009405154032592, 24.532016177639548 ], [ 121.008627959927097, 24.532724072774496 ], [ 121.007857123989837, 24.534237451883207 ], [ 121.007143319281894, 24.534608686778597 ], [ 121.005630055228181, 24.535408268185439 ], [ 121.004373776286599, 24.536322049592069 ], [ 121.001632814130957, 24.538463713130444 ], [ 121.001065675033345, 24.538819733440818 ], [ 121.001266359666204, 24.541054338865699 ], [ 121.001187841039368, 24.548432578598643 ], [ 121.001140429794518, 24.551168961795597 ], [ 121.00140229260461, 24.55309631133672 ], [ 121.001830696227245, 24.554738116999804 ], [ 121.00328229505169, 24.557022321402609 ], [ 121.004329240291284, 24.55697467513026 ], [ 121.005226766819803, 24.557062190724722 ], [ 121.007853708306854, 24.557890100942423 ], [ 121.010280810633986, 24.559203432117688 ], [ 121.01270791205252, 24.56051676328126 ], [ 121.015077931401663, 24.562201293712487 ], [ 121.016191583853598, 24.563429034818874 ], [ 121.017362399933589, 24.565541933489204 ], [ 121.019047175135526, 24.567711911207219 ], [ 121.021645694181686, 24.570538570293486 ], [ 121.023972423652438, 24.571616667502486 ], [ 121.023987121510487, 24.571623478171261 ], [ 121.026756823633207, 24.572365719187918 ], [ 121.029089383784068, 24.572786624612704 ], [ 121.033734055369678, 24.573224192998829 ], [ 121.034758168458552, 24.573447342866551 ], [ 121.034538841721769, 24.573066796667081 ] ] ] ] } },
{ "type": "Feature", "properties": { "OBJECTID_1": 48, "OBJECTID_2": 49, "OBJECTID": 49, "番號": "4", "類型": null, "分區": "要", "Shape_Leng": 0.13277537364, "Shape_Area": 0.00020923469 }, "geometry": { "type": "MultiPolygon", "coordinates": [ [ [ [ 121.033214311411001, 24.592864904520187 ], [ 121.034356281233926, 24.590466345423231 ], [ 121.035127114007253, 24.588895858398839 ], [ 121.035412602081891, 24.588239111889699 ], [ 121.035384024875626, 24.587867917272856 ], [ 121.034776763242746, 24.587408416374934 ], [ 121.034156219462972, 24.587553894792666 ], [ 121.032443024732885, 24.58743977396626 ], [ 121.031614946583616, 24.586868748417594 ], [ 121.03064412717643, 24.586668925898064 ], [ 121.02907369877363, 24.586583350792559 ], [ 121.028188529312132, 24.586240756203427 ], [ 121.027474634670284, 24.58521286781972 ], [ 121.027617344381781, 24.584356253783351 ], [ 121.028216926498715, 24.583842257614531 ], [ 121.028959293457433, 24.583613788515308 ], [ 121.030301209130172, 24.582357360567457 ], [ 121.030672355497956, 24.581672055021915 ], [ 121.030472408842058, 24.580529924785683 ], [ 121.030615089782032, 24.579216454140543 ], [ 121.031071884257273, 24.578359823051326 ], [ 121.031899911402249, 24.578159902791608 ], [ 121.032613756819771, 24.578416846252015 ], [ 121.033813072229648, 24.579701690499366 ], [ 121.034955289865906, 24.581129305254944 ], [ 121.035783405107139, 24.582271401349939 ], [ 121.036582995109711, 24.583841803023557 ], [ 121.037354050601166, 24.585697741065964 ], [ 121.037753888325582, 24.58715394962795 ], [ 121.038039570336792, 24.589466770657694 ], [ 121.038216911094935, 24.590581451193625 ], [ 121.038590090974225, 24.591891086959603 ], [ 121.039480989846865, 24.592523022874513 ], [ 121.040455608462992, 24.592606727379856 ], [ 121.041392102645077, 24.591860477313464 ], [ 121.041826068718038, 24.591220854829317 ], [ 121.042169207019967, 24.59057797634053 ], [ 121.041521358222738, 24.589005116689265 ], [ 121.040942595220884, 24.587680263879406 ], [ 121.040983974854953, 24.586942484621598 ], [ 121.040777965931596, 24.585606528306077 ], [ 121.039043427324174, 24.579269640821757 ], [ 121.03790113535085, 24.576711305492363 ], [ 121.036589472300207, 24.574823035599348 ], [ 121.035923186596136, 24.57411875136664 ], [ 121.034758168458552, 24.573447342866551 ], [ 121.033734055369678, 24.573224192998829 ], [ 121.029089383784068, 24.572786624612704 ], [ 121.026756823633207, 24.572365719187918 ], [ 121.023987121510487, 24.571623478171261 ], [ 121.023972423652438, 24.571616667502486 ], [ 121.022279853262461, 24.572036635024332 ], [ 121.020739686864459, 24.57227367301547 ], [ 121.020849395440393, 24.572412236435031 ], [ 121.021020799962997, 24.573737111432695 ], [ 121.021603367641262, 24.575016278523076 ], [ 121.022083175993515, 24.576797993392869 ], [ 121.022528713242266, 24.57846549529161 ], [ 121.022643046517544, 24.580327179766989 ], [ 121.022551743465058, 24.581355112813359 ], [ 121.023042838743734, 24.581069550401505 ], [ 121.023533933279992, 24.58077256659719 ], [ 121.024047876957425, 24.580578374989926 ], [ 121.024504731549143, 24.580646878527247 ], [ 121.024733174137907, 24.58090955905725 ], [ 121.024870268987627, 24.581526307737835 ], [ 121.024676131654587, 24.581903225159326 ], [ 121.024265005192959, 24.582485739448366 ], [ 121.023419877578164, 24.583182492152019 ], [ 121.023100066623073, 24.582942659373042 ], [ 121.022974411556646, 24.582611445797923 ], [ 121.022688885077386, 24.582691411064648 ], [ 121.022460479013105, 24.582976958305665 ], [ 121.022369137956389, 24.583433819896833 ], [ 121.022529044255279, 24.583559447432631 ], [ 121.023122974405595, 24.583947743428006 ], [ 121.023739744790689, 24.584301773102563 ], [ 121.02426513806104, 24.584530173316033 ], [ 121.025076050070751, 24.584587236217178 ], [ 121.025121699363652, 24.58403900596565 ], [ 121.025155894181651, 24.582965390453129 ], [ 121.025452832083616, 24.582748367848943 ], [ 121.025681232365727, 24.582360027172719 ], [ 121.0256126752912, 24.581903174273041 ], [ 121.026286457565377, 24.580806682126223 ], [ 121.02651238595061, 24.581281060561441 ], [ 121.026734739527754, 24.581228728607392 ], [ 121.027199198269869, 24.58115256045178 ], [ 121.027374309566412, 24.580924123075857 ], [ 121.027313365463868, 24.580444426978197 ], [ 121.027320959722488, 24.580147469446082 ], [ 121.027457993128451, 24.579804819309398 ], [ 121.027671186275072, 24.579751508491924 ], [ 121.027861545865179, 24.579835254732501 ], [ 121.027937700567833, 24.580033222007721 ], [ 121.027914888781311, 24.580505308093493 ], [ 121.028090043708232, 24.580962155199135 ], [ 121.028272802113847, 24.581236259602395 ], [ 121.028318498417534, 24.58141138574614 ], [ 121.028394652131453, 24.581594123897524 ], [ 121.028592627165011, 24.581693098847207 ], [ 121.028889577682946, 24.58167023992678 ], [ 121.029125609331629, 24.581556013171923 ], [ 121.029277898946631, 24.581647376041921 ], [ 121.02927792121281, 24.581990018731389 ], [ 121.029178957694512, 24.582309823113864 ], [ 121.028996232350764, 24.582530647240855 ], [ 121.028950559303212, 24.582713392910755 ], [ 121.028661247576352, 24.58312457878105 ], [ 121.028295771743018, 24.583193127897456 ], [ 121.028143481632299, 24.583094150465897 ], [ 121.028090166420384, 24.582850496377581 ], [ 121.028189129938241, 24.582530691094853 ], [ 121.027823640158971, 24.582370811450627 ], [ 121.027567225548026, 24.582331098720022 ], [ 121.027577170686243, 24.582519823660277 ], [ 121.027417304628003, 24.582999531755952 ], [ 121.02707467496667, 24.58312518659665 ], [ 121.026652104853625, 24.583376480206191 ], [ 121.02666354018784, 24.583593486953355 ], [ 121.026926251509622, 24.583947536764143 ], [ 121.02701764600981, 24.584313016377557 ], [ 121.027063353945209, 24.584667077979734 ], [ 121.026903480310196, 24.585043993539482 ], [ 121.026355267008086, 24.585146815867905 ], [ 121.025921265272359, 24.585238210597044 ], [ 121.026480939150673, 24.585740723280409 ], [ 121.026800764210535, 24.586197562525076 ], [ 121.027086329290128, 24.58671151059664 ], [ 121.02746330505154, 24.587853631221279 ], [ 121.027760343181768, 24.589178499378718 ], [ 121.028011603735251, 24.58906427179177 ], [ 121.028514119487667, 24.588767287360536 ], [ 121.029150791165961, 24.58872746044532 ], [ 121.029439255586695, 24.588991858111772 ], [ 121.029530668003702, 24.589646681179495 ], [ 121.029317515947156, 24.590331978148708 ], [ 121.028556143912496, 24.591017304016606 ], [ 121.028906410143193, 24.591245713740289 ], [ 121.029530787802912, 24.591489336789131 ], [ 121.030596779663995, 24.591611107341343 ], [ 121.031601849770951, 24.591611052712128 ], [ 121.032089216224705, 24.592524739464217 ], [ 121.032637521357657, 24.593834364827615 ], [ 121.032818787629381, 24.593981088398618 ], [ 121.033214311411001, 24.592864904520187 ] ], [ [ 121.025935218908714, 24.580726229850896 ], [ 121.025935230288667, 24.580901358477632 ], [ 121.025767728497414, 24.581053653419524 ], [ 121.025427866823975, 24.581011934337354 ], [ 121.025463143732026, 24.580771941072037 ], [ 121.025744855854001, 24.580589183476174 ], [ 121.025935218908714, 24.580726229850896 ] ] ] ] } },
{ "type": "Feature", "properties": { "OBJECTID_1": 52, "OBJECTID_2": 53, "OBJECTID": 54, "番號": "3", "類型": null, "分區": "要", "Shape_Leng": 0.02912831274, "Shape_Area": 2.58541e-05 }, "geometry": { "type": "MultiPolygon", "coordinates": [ [ [ [ 121.040666798345995, 24.600524754788545 ], [ 121.040802683252593, 24.600098348132825 ], [ 121.04110534267376, 24.600035514016319 ], [ 121.041295681708817, 24.599803268079565 ], [ 121.041584989440338, 24.599331167511917 ], [ 121.041919994970769, 24.599057034970254 ], [ 121.042133199496462, 24.599178851868935 ], [ 121.042162207860486, 24.599168671762339 ], [ 121.043001194998538, 24.598874233902333 ], [ 121.043716905836902, 24.598554395092883 ], [ 121.044143278147018, 24.598219343790735 ], [ 121.044554422540955, 24.597899521541066 ], [ 121.04455440273226, 24.597594950768038 ], [ 121.044572439504279, 24.597556867086801 ], [ 121.044691438678882, 24.597305600768127 ], [ 121.044737124590824, 24.597320826508383 ], [ 121.045026455103297, 24.597198982289843 ], [ 121.045226837934521, 24.597095912662006 ], [ 121.045559429225634, 24.596924839889134 ], [ 121.045571740184641, 24.596901973051985 ], [ 121.046092356800855, 24.595934954781502 ], [ 121.04647303635906, 24.595493305702714 ], [ 121.047005997607513, 24.595021191899189 ], [ 121.047310557116944, 24.594914575078811 ], [ 121.047752141591161, 24.594335865979346 ], [ 121.04780895272259, 24.594279825221957 ], [ 121.04854254525101, 24.593556185261477 ], [ 121.048301064867502, 24.593437827793238 ], [ 121.045825461277644, 24.592722473256579 ], [ 121.045487657790176, 24.593145639829366 ], [ 121.044850047670735, 24.594325887469665 ], [ 121.04353669445976, 24.595725082176045 ], [ 121.042413661347695, 24.596600785440359 ], [ 121.041262052255746, 24.597124329150756 ], [ 121.040053338247162, 24.59766691192306 ], [ 121.039163467502092, 24.598199959836272 ], [ 121.037831026296857, 24.598794897991521 ], [ 121.037548623322095, 24.598808605526862 ], [ 121.037556599729314, 24.598829063775753 ], [ 121.038074413298375, 24.59960569124306 ], [ 121.03862265496565, 24.599925461337087 ], [ 121.039323178507061, 24.600245223150747 ], [ 121.040236911436622, 24.600747715657604 ], [ 121.040678546426236, 24.60094566305494 ], [ 121.040791454507612, 24.600969851383052 ], [ 121.040666798345995, 24.600524754788545 ] ] ] ] } },
{ "type": "Feature", "properties": { "OBJECTID_1": 54, "OBJECTID_2": 55, "OBJECTID": 56, "番號": "9", "類型": null, "分區": "要", "Shape_Leng": 0.12245119244, "Shape_Area": 0.00068919599 }, "geometry": { "type": "MultiPolygon", "coordinates": [ [ [ [ 121.075817757567549, 24.603228718918739 ], [ 121.075939744422953, 24.602496494933686 ], [ 121.076415597369362, 24.601992023045483 ], [ 121.077395861628474, 24.601078256586241 ], [ 121.07802398399555, 24.600354866109484 ], [ 121.078775797049701, 24.599031844931673 ], [ 121.079527641058405, 24.598184715388797 ], [ 121.079651329890439, 24.597556531207683 ], [ 121.079946367155102, 24.597375675863631 ], [ 121.080279459071917, 24.596937837132579 ], [ 121.08066966366404, 24.596614209216852 ], [ 121.08100275372469, 24.596147817007434 ], [ 121.081316794826193, 24.595491068103453 ], [ 121.081402409485818, 24.594805779036335 ], [ 121.081469006692515, 24.594386989847841 ], [ 121.08194479714497, 24.592921215397922 ], [ 121.082487203717207, 24.591341224312423 ], [ 121.082753681104464, 24.59105567413441 ], [ 121.082963040589149, 24.590589288656719 ], [ 121.082963026976898, 24.590379895874275 ], [ 121.082772633256994, 24.589770763824706 ], [ 121.082096808889958, 24.588752391014321 ], [ 121.081563769013073, 24.588000510185431 ], [ 121.081344827511117, 24.587486558550246 ], [ 121.081344794723677, 24.586982112546188 ], [ 121.08126860368678, 24.586211170937883 ], [ 121.081002066908908, 24.585583007969827 ], [ 121.080450001591188, 24.585002449048709 ], [ 121.079802760899014, 24.584440932149995 ], [ 121.079288770038744, 24.583907960590501 ], [ 121.078717664372519, 24.583241742261396 ], [ 121.078413082829655, 24.583022848498807 ], [ 121.077251886530959, 24.58247087614674 ], [ 121.076233470441863, 24.582147324773306 ], [ 121.07552914277241, 24.581880863294149 ], [ 121.075091312013583, 24.581642940815794 ], [ 121.074815278876315, 24.581338385060111 ], [ 121.074758151083472, 24.581005263931576 ], [ 121.074748613902244, 24.580700692798178 ], [ 121.074919898951379, 24.580186719955226 ], [ 121.074900825547061, 24.579606132068029 ], [ 121.074767545413863, 24.579111211724111 ], [ 121.074415299958218, 24.577721625173318 ], [ 121.074367681185734, 24.577245736128788 ], [ 121.074120163748347, 24.576379624952409 ], [ 121.073758436153483, 24.57553255683138 ], [ 121.073510921474835, 24.574695000032953 ], [ 121.073301497664431, 24.574171529444037 ], [ 121.073244361843095, 24.573714675969644 ], [ 121.073063504708159, 24.573400596614228 ], [ 121.073015893079486, 24.573048439015178 ], [ 121.072835038417807, 24.57277243156549 ], [ 121.072777905071163, 24.572353649097408 ], [ 121.072615991522014, 24.570621410446268 ], [ 121.072492230312292, 24.570136007109937 ], [ 121.072311352167134, 24.569498321049611 ], [ 121.071902009877547, 24.568251505891368 ], [ 121.071606889158929, 24.567147451029939 ], [ 121.071349879076251, 24.566662054927846 ], [ 121.070426573147927, 24.565301053753107 ], [ 121.070121990993925, 24.56507264155174 ], [ 121.069998246475748, 24.56484422043091 ], [ 121.069036878454952, 24.563625987817499 ], [ 121.06808505096943, 24.562750398241032 ], [ 121.067875658068402, 24.562702820175947 ], [ 121.067218896017579, 24.562093713424904 ], [ 121.06639081428429, 24.561465580919194 ], [ 121.065972008993413, 24.561056336507331 ], [ 121.064496669909914, 24.559609703938474 ], [ 121.063930517282145, 24.559020599482864 ], [ 121.063205027155064, 24.559683993318238 ], [ 121.062200020133659, 24.560654868004669 ], [ 121.060749588535657, 24.561705717521946 ], [ 121.059698915871877, 24.562973550895457 ], [ 121.05915072114054, 24.563361908892858 ], [ 121.058099981591454, 24.56361323746918 ], [ 121.057300510158612, 24.563853130112843 ], [ 121.057106373557559, 24.564241468889996 ], [ 121.057163579068245, 24.565771935947073 ], [ 121.057380662684551, 24.566994014933055 ], [ 121.057529218768011, 24.568227519931593 ], [ 121.057449337647142, 24.569266872767166 ], [ 121.056798460141579, 24.571322763227961 ], [ 121.056318860143705, 24.572761887408305 ], [ 121.056204741314303, 24.574200991741421 ], [ 121.056467542532303, 24.575925611311135 ], [ 121.056536112945651, 24.576588050142458 ], [ 121.057781146212733, 24.578381144707571 ], [ 121.058809141081284, 24.579648866109725 ], [ 121.059905624000024, 24.580311248195223 ], [ 121.061047777893748, 24.580745199951089 ], [ 121.062932372741798, 24.58210424593981 ], [ 121.064086010946852, 24.583509017203827 ], [ 121.064885609431172, 24.58521076479688 ], [ 121.064588741923572, 24.586524243733251 ], [ 121.063697962146634, 24.587723541024278 ], [ 121.06176794294899, 24.590373413422604 ], [ 121.06173560810592, 24.590384601849188 ], [ 121.061688006830877, 24.590579393134895 ], [ 121.061276896016452, 24.591401757525947 ], [ 121.060789655343598, 24.592422096557936 ], [ 121.059525800924703, 24.593929792646314 ], [ 121.057454875756306, 24.595909616537757 ], [ 121.057927009231022, 24.59674716205128 ], [ 121.059221489002255, 24.597843547153715 ], [ 121.06068349827396, 24.599214037460495 ], [ 121.06237394195837, 24.600721572049014 ], [ 121.063257275377936, 24.60210732292742 ], [ 121.063516165803307, 24.60224436555934 ], [ 121.066835950034516, 24.602335556192894 ], [ 121.069226803270851, 24.602411569111222 ], [ 121.069805494966261, 24.602639966390097 ], [ 121.071054219462638, 24.602655126716645 ], [ 121.072729353875673, 24.602913920823703 ], [ 121.074891804281421, 24.603324974259809 ], [ 121.075817757567549, 24.603228718918739 ] ] ] ] } },
{ "type": "Feature", "properties": { "OBJECTID_1": 57, "OBJECTID_2": 58, "OBJECTID": 59, "番號": "2", "類型": null, "分區": "要", "Shape_Leng": 0.02426245154, "Shape_Area": 2.775652e-05 }, "geometry": { "type": "MultiPolygon", "coordinates": [ [ [ [ 121.058622312940173, 24.60522069310155 ], [ 121.058930611997042, 24.60406711299704 ], [ 121.059238920561384, 24.603073433288152 ], [ 121.059437582151858, 24.60247341537093 ], [ 121.059505572318358, 24.601804833037075 ], [ 121.058970881641727, 24.600561355756103 ], [ 121.057152876989122, 24.598691197081813 ], [ 121.055325377540839, 24.597168441699608 ], [ 121.055084545304595, 24.597018466726958 ], [ 121.055429452089555, 24.599341836209177 ], [ 121.055448636357383, 24.601626118171986 ], [ 121.055210716373026, 24.601978291311646 ], [ 121.05427798667543, 24.602073519998605 ], [ 121.053944889454087, 24.602416180787223 ], [ 121.053954445235163, 24.603006286750841 ], [ 121.054049636993653, 24.603225191899316 ], [ 121.054944365295427, 24.604205481842538 ], [ 121.05604847041127, 24.604985885127842 ], [ 121.056695697838535, 24.605328492608013 ], [ 121.056981243451617, 24.605556904930978 ], [ 121.057361981443691, 24.606013740827123 ], [ 121.05770463658331, 24.60628022195181 ], [ 121.058075834269715, 24.60638489816338 ], [ 121.058467134379512, 24.606422920912784 ], [ 121.058622312940173, 24.60522069310155 ] ] ] ] } },
{ "type": "Feature", "properties": { "OBJECTID_1": 62, "OBJECTID_2": 63, "OBJECTID": 64, "番號": "1", "類型": null, "分區": "要", "Shape_Leng": 0.05131025717, "Shape_Area": 3.267401e-05 }, "geometry": { "type": "MultiPolygon", "coordinates": [ [ [ [ 121.058999629307294, 24.614525224215004 ], [ 121.058634076933473, 24.613417366324569 ], [ 121.058257636514838, 24.61192095325071 ], [ 121.058102091812032, 24.611863530093171 ], [ 121.057768770400671, 24.611870322818017 ], [ 121.057268868538983, 24.611552237246329 ], [ 121.05610712274877, 24.610987997307262 ], [ 121.054891909769168, 24.610401613563976 ], [ 121.054833741850373, 24.610365017009997 ], [ 121.054847261006884, 24.610666518556886 ], [ 121.054573156936058, 24.61075029004515 ], [ 121.054253352674237, 24.610613250727965 ], [ 121.054108670079984, 24.610407672630505 ], [ 121.054161953100547, 24.610156399094389 ], [ 121.054377526864243, 24.61007799344846 ], [ 121.053536531966671, 24.609548888766369 ], [ 121.051846085225364, 24.607995667705314 ], [ 121.050460213749972, 24.606564259459358 ], [ 121.049424626334741, 24.605635373437796 ], [ 121.048100206374926, 24.604547957100845 ], [ 121.048019737260461, 24.604481887370625 ], [ 121.046858508633662, 24.603434987414346 ], [ 121.046078021720632, 24.602902030325598 ], [ 121.044669341809737, 24.602007429654261 ], [ 121.044136323854701, 24.601607708988436 ], [ 121.043723392378411, 24.60174537990882 ], [ 121.044271120257349, 24.602185312070958 ], [ 121.045276259586601, 24.603236028252834 ], [ 121.045398148761066, 24.604195420419117 ], [ 121.0450802727308, 24.604723651042036 ], [ 121.044890533548937, 24.605038951157137 ], [ 121.04513935254154, 24.605520318756696 ], [ 121.045562713527119, 24.60571775902508 ], [ 121.046514502056041, 24.605991821591843 ], [ 121.04811353388034, 24.606852147720062 ], [ 121.04866938513139, 24.607111002692946 ], [ 121.049692752479814, 24.607469326060148 ], [ 121.050180102113046, 24.608124126671143 ], [ 121.049613849504738, 24.608073411410025 ], [ 121.049829561088686, 24.608205727754633 ], [ 121.051002204264265, 24.609149834540979 ], [ 121.052631730250539, 24.610596457751218 ], [ 121.054961791566001, 24.612530357699193 ], [ 121.056058285875736, 24.613352640122461 ], [ 121.05727503485312, 24.614753745882119 ], [ 121.05773191692299, 24.615244841808636 ], [ 121.058266550176867, 24.615743403275225 ], [ 121.059327406980756, 24.616170144117543 ], [ 121.059662577622845, 24.616222477230362 ], [ 121.058999629307294, 24.614525224215004 ] ], [ [ 121.047620138074251, 24.605670358976287 ], [ 121.047475441113846, 24.605243967582293 ], [ 121.047650548914191, 24.604962230072001 ], [ 121.048008406802836, 24.60484038212271 ], [ 121.048389122509221, 24.60495457534703 ], [ 121.04871655906139, 24.60536572857897 ], [ 121.048556684223357, 24.60572360817844 ], [ 121.048217532186129, 24.605834914154759 ], [ 121.047620138074251, 24.605670358976287 ] ] ] ] } },
{ "type": "Feature", "properties": { "OBJECTID_1": 64, "OBJECTID_2": 65, "OBJECTID": 0, "番號": "14", "類型": null, "分區": "要", "Shape_Leng": 0.19734862847000001, "Shape_Area": 0.00055779625 }, "geometry": { "type": "MultiPolygon", "coordinates": [ [ [ [ 121.048863738208766, 24.593239350061598 ], [ 121.049229190751703, 24.592812930938997 ], [ 121.049518484627825, 24.592127629857853 ], [ 121.049487915834973, 24.590406804466273 ], [ 121.049350783851793, 24.589218985287907 ], [ 121.049228853153551, 24.587619993350859 ], [ 121.049457201449599, 24.586432154312305 ], [ 121.050283640504645, 24.585445623940721 ], [ 121.050026847145091, 24.58505762710843 ], [ 121.049375827056551, 24.584932027165326 ], [ 121.048416441914554, 24.584932079296578 ], [ 121.047959605164991, 24.585137690086857 ], [ 121.047276635494057, 24.585471613176352 ], [ 121.046819780432713, 24.58539549508415 ], [ 121.04645426147151, 24.584786372505441 ], [ 121.046850166085363, 24.584299037040665 ], [ 121.047360513955411, 24.584182699063295 ], [ 121.046187217908937, 24.580414724872185 ], [ 121.045633771449388, 24.578107629129843 ], [ 121.045210482116559, 24.577047174019263 ], [ 121.044601270670029, 24.575851765917182 ], [ 121.044052189433046, 24.574097563361104 ], [ 121.043778608176339, 24.573092689921261 ], [ 121.043393817862324, 24.571679341359019 ], [ 121.042398077274115, 24.571278675427514 ], [ 121.041895477948643, 24.570288846593478 ], [ 121.041682193331312, 24.568933516581364 ], [ 121.041631813891158, 24.567976028896179 ], [ 121.04159193096018, 24.567748986366293 ], [ 121.041122610949884, 24.567498712481118 ], [ 121.040665729929287, 24.56702284562942 ], [ 121.04015172916047, 24.566337588180438 ], [ 121.039866154239832, 24.565671354281179 ], [ 121.039999316955033, 24.564357884193569 ], [ 121.039742918911557, 24.564074527067284 ], [ 121.039522618648633, 24.564060477225862 ], [ 121.038513695439761, 24.563346694062439 ], [ 121.038018743672311, 24.562880346799933 ], [ 121.037790277663944, 24.562242663278269 ], [ 121.037790250479262, 24.561823877680929 ], [ 121.037942509777253, 24.561462191678814 ], [ 121.037971027021129, 24.56091015465071 ], [ 121.038082277755436, 24.560810918292088 ], [ 121.037975860544634, 24.560241023553058 ], [ 121.037564628625205, 24.559213118735517 ], [ 121.037001135182479, 24.558512635739749 ], [ 121.036468086390826, 24.557637023368081 ], [ 121.036462216735231, 24.557625285732534 ], [ 121.036133019540458, 24.556966984417933 ], [ 121.035874092552646, 24.556266484886557 ], [ 121.035843582274637, 24.555444145367019 ], [ 121.035927274424495, 24.554469512914068 ], [ 121.03597017368655, 24.55400444136691 ], [ 121.035150703247268, 24.554630724404976 ], [ 121.034396913719362, 24.554824928995114 ], [ 121.032889318779709, 24.55499633171533 ], [ 121.031941360754985, 24.555087755210302 ], [ 121.030879150399159, 24.554562426995957 ], [ 121.031118951780911, 24.553877129511186 ], [ 121.031827045434525, 24.553500184217 ], [ 121.032329556034099, 24.553123250081796 ], [ 121.032809210092438, 24.552529310725227 ], [ 121.033654356291223, 24.552118093818269 ], [ 121.034568055067069, 24.552095201444761 ], [ 121.035335291528753, 24.552157536797644 ], [ 121.035279916013977, 24.552093893867216 ], [ 121.034373768956499, 24.551149772480773 ], [ 121.033536127550633, 24.549870619253717 ], [ 121.032584293192045, 24.548903657554735 ], [ 121.031990322107859, 24.547883377200378 ], [ 121.031659658337134, 24.547435821337384 ], [ 121.031091548375102, 24.547852491982731 ], [ 121.030292062639901, 24.547886799543885 ], [ 121.029835185836191, 24.547475653294789 ], [ 121.02978945720487, 24.546801792700787 ], [ 121.030040699255608, 24.54640202942057 ], [ 121.030909393868583, 24.546420334754412 ], [ 121.03074148883357, 24.546193075235681 ], [ 121.030458110247096, 24.545640564997338 ], [ 121.029722911994455, 24.545832689332897 ], [ 121.029168412646584, 24.545951544173086 ], [ 121.028603644225342, 24.546072600212394 ], [ 121.027176000254912, 24.546266841354957 ], [ 121.025462806085912, 24.546175563170202 ], [ 121.024960261392422, 24.546027112330471 ], [ 121.023635384783617, 24.545855862424755 ], [ 121.022219110173211, 24.545250604544147 ], [ 121.021191143502122, 24.544416896832477 ], [ 121.020848476040953, 24.543960058804949 ], [ 121.020231682579293, 24.543263386396408 ], [ 121.019557786824322, 24.542612401757118 ], [ 121.018461255577662, 24.541219048597799 ], [ 121.017387527708152, 24.539208938071795 ], [ 121.016348025782023, 24.5366163328376 ], [ 121.015251390909967, 24.533623981037874 ], [ 121.013834886093349, 24.529466662682676 ], [ 121.012932447161461, 24.526999686214317 ], [ 121.012464103255127, 24.525880412387707 ], [ 121.011607430665947, 24.524669788468891 ], [ 121.010910695433893, 24.524064491509357 ], [ 121.008425874932584, 24.524101713378734 ], [ 121.008761891432343, 24.527020853969223 ], [ 121.008933377656746, 24.529609698589933 ], [ 121.009405154032592, 24.532016177639548 ], [ 121.009676005003868, 24.53339776122181 ], [ 121.010970797407424, 24.539317792093119 ], [ 121.012284447845047, 24.542496681264012 ], [ 121.013236366427137, 24.544761877696317 ], [ 121.014302465570793, 24.54655117444598 ], [ 121.016263196897697, 24.547826459950524 ], [ 121.018109704794583, 24.548930429848717 ], [ 121.019708728915944, 24.549672734523792 ], [ 121.021498127278704, 24.550738636497751 ], [ 121.022754512324525, 24.551461924702984 ], [ 121.023934796285005, 24.552813394548675 ], [ 121.025077015953727, 24.554260045329187 ], [ 121.026580971239767, 24.556677496668428 ], [ 121.027437717650017, 24.559037876166208 ], [ 121.027533026142649, 24.561055654310369 ], [ 121.027875756644548, 24.562483313419609 ], [ 121.028085272526994, 24.564424942444354 ], [ 121.028675483122512, 24.566157157993253 ], [ 121.029037257086316, 24.567718065949727 ], [ 121.030369832196683, 24.569183741409944 ], [ 121.031911799949839, 24.570706513355184 ], [ 121.033453753767802, 24.572000856535883 ], [ 121.034538841721769, 24.573066796667081 ], [ 121.034758168458552, 24.573447342866551 ], [ 121.035923186596136, 24.57411875136664 ], [ 121.036589472300207, 24.574823035599348 ], [ 121.03790113535085, 24.576711305492363 ], [ 121.039043427324174, 24.579269640821757 ], [ 121.040777965931596, 24.585606528306077 ], [ 121.040983974854953, 24.586942484621598 ], [ 121.040942595220884, 24.587680263879406 ], [ 121.041521358222738, 24.589005116689265 ], [ 121.042169207019967, 24.59057797634053 ], [ 121.042319447148259, 24.590296496493075 ], [ 121.043450597091081, 24.588986451627704 ], [ 121.045658690981895, 24.588757903770368 ], [ 121.047267189169105, 24.588833958372636 ], [ 121.047010321624228, 24.590528149776407 ], [ 121.046429834355862, 24.591965375638836 ], [ 121.045825461277644, 24.592722473256579 ], [ 121.048301064867502, 24.593437827793238 ], [ 121.04854254525101, 24.593556185261477 ], [ 121.048863738208766, 24.593239350061598 ] ] ] ] } },
{ "type": "Feature", "properties": { "OBJECTID_1": 66, "OBJECTID_2": 0, "OBJECTID": 0, "番號": "8", "類型": null, "分區": "要", "Shape_Leng": 0.20664227772, "Shape_Area": 0.00067863004 }, "geometry": { "type": "MultiPolygon", "coordinates": [ [ [ [ 121.062558902553121, 24.618763221563238 ], [ 121.063701009363413, 24.618487142140527 ], [ 121.064186413768937, 24.618506150786139 ], [ 121.06508106739301, 24.618325263697805 ], [ 121.066156547557839, 24.618001598467949 ], [ 121.066727588875167, 24.617677959783993 ], [ 121.068383549951051, 24.615821889839797 ], [ 121.069868217090374, 24.614356061330643 ], [ 121.069953857106768, 24.614061003438358 ], [ 121.070696199800935, 24.61346133816479 ], [ 121.071133999953503, 24.613242404032579 ], [ 121.071638423925137, 24.613013948749778 ], [ 121.072257053377669, 24.612680789960947 ], [ 121.072590154288676, 24.61239523703702 ], [ 121.073808373453176, 24.611652778484121 ], [ 121.074436528348443, 24.611443351528873 ], [ 121.075083713350267, 24.611148263098002 ], [ 121.075511984958936, 24.610758008606531 ], [ 121.075397635778671, 24.608654570311508 ], [ 121.07543555265363, 24.606294142415173 ], [ 121.075673403885006, 24.604885488723511 ], [ 121.0757875821228, 24.604362001444404 ], [ 121.075778006526875, 24.603467323853323 ], [ 121.075817757567549, 24.603228718918739 ], [ 121.074891804281421, 24.603324974259809 ], [ 121.072729353875673, 24.602913920823703 ], [ 121.071054219462638, 24.602655126716645 ], [ 121.069805494966261, 24.602639966390097 ], [ 121.069226803270851, 24.602411569111222 ], [ 121.066835950034516, 24.602335556192894 ], [ 121.063516165803307, 24.60224436555934 ], [ 121.063257275377936, 24.60210732292742 ], [ 121.06237394195837, 24.600721572049014 ], [ 121.06068349827396, 24.599214037460495 ], [ 121.059221489002255, 24.597843547153715 ], [ 121.057927009231022, 24.59674716205128 ], [ 121.057454875756306, 24.595909616537757 ], [ 121.059525800924703, 24.593929792646314 ], [ 121.060789655343598, 24.592422096557936 ], [ 121.061276896016452, 24.591401757525947 ], [ 121.061688006830877, 24.590579393134895 ], [ 121.06173560810592, 24.590384601849188 ], [ 121.06176794294899, 24.590373413422604 ], [ 121.063697962146634, 24.587723541024278 ], [ 121.064588741923572, 24.586524243733251 ], [ 121.064885609431172, 24.58521076479688 ], [ 121.064086010946852, 24.583509017203827 ], [ 121.062932372741798, 24.58210424593981 ], [ 121.061047777893748, 24.580745199951089 ], [ 121.059905624000024, 24.580311248195223 ], [ 121.058809141081284, 24.579648866109725 ], [ 121.057781146212733, 24.578381144707571 ], [ 121.056536112945651, 24.576588050142458 ], [ 121.056467542532303, 24.575925611311135 ], [ 121.056204741314303, 24.574200991741421 ], [ 121.056318860143705, 24.572761887408305 ], [ 121.056798460141579, 24.571322763227961 ], [ 121.057449337647142, 24.569266872767166 ], [ 121.057529218768011, 24.568227519931593 ], [ 121.057380662684551, 24.566994014933055 ], [ 121.057163579068245, 24.565771935947073 ], [ 121.057106373557559, 24.564241468889996 ], [ 121.057300510158612, 24.563853130112843 ], [ 121.058099981591454, 24.56361323746918 ], [ 121.05915072114054, 24.563361908892858 ], [ 121.059698915871877, 24.562973550895457 ], [ 121.060749588535657, 24.561705717521946 ], [ 121.062200020133659, 24.560654868004669 ], [ 121.063205027155064, 24.559683993318238 ], [ 121.063930517282145, 24.559020599482864 ], [ 121.063325912082817, 24.558391482670878 ], [ 121.063164093113286, 24.558115474179303 ], [ 121.0628309118419, 24.557163708090918 ], [ 121.062460859854426, 24.556323879940795 ], [ 121.061055459589312, 24.556920898430644 ], [ 121.059456498280753, 24.557130377111193 ], [ 121.055820723602281, 24.556997324584678 ], [ 121.05317478257524, 24.556721450925266 ], [ 121.051471095161403, 24.556464562072549 ], [ 121.050110047065218, 24.556217171248235 ], [ 121.049329584330167, 24.556055410251847 ], [ 121.048225534290964, 24.556122095566842 ], [ 121.046978740822311, 24.556540947931506 ], [ 121.04592231597826, 24.557169183659894 ], [ 121.045103836221912, 24.557844995011035 ], [ 121.044875440645015, 24.558292346482038 ], [ 121.044751164958726, 24.558276818335667 ], [ 121.044989686243767, 24.558805351461235 ], [ 121.043916206650479, 24.560621415648416 ], [ 121.042294469134319, 24.561866437283104 ], [ 121.041589133795412, 24.562314235536537 ], [ 121.041822500932795, 24.56362910214963 ], [ 121.042290863485491, 24.565033910711204 ], [ 121.042781088933111, 24.566338310552982 ], [ 121.043066582762876, 24.566240407420505 ], [ 121.043466335379875, 24.566373635594186 ], [ 121.043980310188786, 24.56665914339958 ], [ 121.044151664152096, 24.567192132716034 ], [ 121.044113624920811, 24.567687063293373 ], [ 121.043642179911203, 24.568005651319481 ], [ 121.044255579021424, 24.569042720928032 ], [ 121.044781025497699, 24.570104883703941 ], [ 121.045179390942423, 24.572571557317403 ], [ 121.045697840373663, 24.572228664349005 ], [ 121.046348800221352, 24.571440551107276 ], [ 121.047502245567316, 24.569875754087057 ], [ 121.048792752357301, 24.568413743064713 ], [ 121.049580871703711, 24.569224620931706 ], [ 121.049809329684962, 24.56973857208617 ], [ 121.049729469337933, 24.571097724827531 ], [ 121.049489670075758, 24.571828708769814 ], [ 121.048941535430302, 24.573142201377681 ], [ 121.048656097405456, 24.574569893646146 ], [ 121.048667547569849, 24.575015328232759 ], [ 121.048165062988019, 24.57579201201926 ], [ 121.047700176539422, 24.576344139294783 ], [ 121.048626571622108, 24.576291896805824 ], [ 121.049380365558775, 24.576166219642303 ], [ 121.050018486092767, 24.57636325076534 ], [ 121.050758590840104, 24.578717000379207 ], [ 121.050854024713786, 24.58104308409019 ], [ 121.050739872369775, 24.581979646278761 ], [ 121.050380465760767, 24.582874921318961 ], [ 121.049588253901817, 24.583964253149865 ], [ 121.049222796644457, 24.584318337077026 ], [ 121.048548537943574, 24.5843933079422 ], [ 121.048505269410143, 24.584198708649044 ], [ 121.048438235861227, 24.58393702390509 ], [ 121.047360513955411, 24.584182699063295 ], [ 121.047695137714342, 24.585257323310756 ], [ 121.047697629351134, 24.585265777703878 ], [ 121.047959605164991, 24.585137690086857 ], [ 121.048416441914554, 24.584932079296578 ], [ 121.049375827056551, 24.584932027165326 ], [ 121.050026847145091, 24.58505762710843 ], [ 121.050283640504645, 24.585445623940721 ], [ 121.050401285337387, 24.585305189278049 ], [ 121.05186315205718, 24.584482768680417 ], [ 121.052350476892485, 24.584756855621112 ], [ 121.05270077575878, 24.585487807506258 ], [ 121.052929258759633, 24.586386280066911 ], [ 121.052974987142136, 24.587041104685863 ], [ 121.052883721330019, 24.588655336420082 ], [ 121.05306650942957, 24.5893862974069 ], [ 121.053173161727642, 24.590223861895272 ], [ 121.053544416959511, 24.591213697835627 ], [ 121.054020386287348, 24.592498581323444 ], [ 121.054182234379624, 24.593221928885399 ], [ 121.054267935688756, 24.593869137669568 ], [ 121.054896219022652, 24.595620387002871 ], [ 121.054991445775556, 24.596391327620715 ], [ 121.055084545304595, 24.597018466726958 ], [ 121.055325377540839, 24.597168441699608 ], [ 121.057152876989122, 24.598691197081813 ], [ 121.058970881641727, 24.600561355756103 ], [ 121.059505572318358, 24.601804833037075 ], [ 121.059437582151858, 24.60247341537093 ], [ 121.059238920561384, 24.603073433288152 ], [ 121.058930611997042, 24.60406711299704 ], [ 121.058622312940173, 24.60522069310155 ], [ 121.058467134379512, 24.606422920912784 ], [ 121.058761113302879, 24.606451486285973 ], [ 121.059329955691766, 24.606498858626821 ], [ 121.06063732483419, 24.607477569387814 ], [ 121.060698287803703, 24.608246607997501 ], [ 121.060172959877676, 24.609008063932468 ], [ 121.059515774051107, 24.609572192358073 ], [ 121.059282165074805, 24.609975125711159 ], [ 121.059175596061422, 24.610431988107418 ], [ 121.059160436937347, 24.611490373404315 ], [ 121.058939656122476, 24.611954856575203 ], [ 121.058597024271322, 24.61204624635236 ], [ 121.058257636514838, 24.61192095325071 ], [ 121.058634076933473, 24.613417366324569 ], [ 121.058999629307294, 24.614525224215004 ], [ 121.059662577622845, 24.616222477230362 ], [ 121.059735269544205, 24.616233827219194 ], [ 121.060249252558251, 24.616644970288103 ], [ 121.060957465791276, 24.618106873599668 ], [ 121.061300525077073, 24.619179810226495 ], [ 121.062558902553121, 24.618763221563238 ] ] ] ] } }
]
}
