{
"type": "FeatureCollection",
"name": "南庄準要存置林野",
"crs": { "type": "name", "properties": { "name": "urn:ogc:def:crs:OGC:1.3:CRS84" } },
"features": [
{ "type": "Feature", "properties": { "OBJECTID_1": 1, "OBJECTID_2": 1, "OBJECTID": 1, "番號": "20", "類型": "蕃", "分區": "準要", "Shape_Leng": 0.02376739219, "Shape_Area": 2.39554e-05 }, "geometry": { "type": "MultiPolygon", "coordinates": [ [ [ [ 121.055222899276188, 24.616169973507535 ], [ 121.055831973901377, 24.615275262218141 ], [ 121.05607936817006, 24.614247321625314 ], [ 121.056248290930895, 24.613571433991659 ], [ 121.056058285875736, 24.613352640122461 ], [ 121.054961791566001, 24.612530357699193 ], [ 121.052631730250539, 24.610596457751218 ], [ 121.051002204264265, 24.609149834540979 ], [ 121.049829561088686, 24.608205727754633 ], [ 121.049613849504738, 24.608073411410025 ], [ 121.04875002444895, 24.607996044729539 ], [ 121.048878867112322, 24.608527246699119 ], [ 121.0501816769942, 24.610904620578118 ], [ 121.050608122627253, 24.611696482111093 ], [ 121.051110734968773, 24.612884282313466 ], [ 121.051461009125902, 24.613234519603218 ], [ 121.051735139374344, 24.613539075463688 ], [ 121.052770754565557, 24.614894360727032 ], [ 121.05344085777277, 24.615762351916516 ], [ 121.054330429594174, 24.616661551136424 ], [ 121.055222899276188, 24.616169973507535 ] ] ] ] } },
{ "type": "Feature", "properties": { "OBJECTID_1": 2, "OBJECTID_2": 2, "OBJECTID": 2, "番號": "19", "類型": "蕃", "分區": "準要", "Shape_Leng": 0.03100682124, "Shape_Area": 1.843707e-05 }, "geometry": { "type": "MultiPolygon", "coordinates": [ [ [ [ 121.05904693347648, 24.619781822242228 ], [ 121.059751231460041, 24.61959142707941 ], [ 121.061207416181631, 24.619210634166436 ], [ 121.061300525077073, 24.619179810226495 ], [ 121.060957465791276, 24.618106873599668 ], [ 121.060249252558251, 24.616644970288103 ], [ 121.059735269544205, 24.616233827219194 ], [ 121.059327406980756, 24.616170144117543 ], [ 121.058266550176867, 24.615743403275225 ], [ 121.05773191692299, 24.615244841808636 ], [ 121.05727503485312, 24.614753745882119 ], [ 121.056248290930895, 24.613571433991659 ], [ 121.05607936817006, 24.614247321625314 ], [ 121.055831973901377, 24.615275262218141 ], [ 121.055222899276188, 24.616169973507535 ], [ 121.054330429594174, 24.616661551136424 ], [ 121.056227826725504, 24.618579482846886 ], [ 121.057519937384143, 24.61984898846989 ], [ 121.057600248166949, 24.619886597354132 ], [ 121.05829504425482, 24.61993414808687 ], [ 121.05904693347648, 24.619781822242228 ] ], [ [ 121.059302440012061, 24.618526966917994 ], [ 121.058845570580303, 24.618230035567681 ], [ 121.05806888588782, 24.617613320825328 ], [ 121.057634876018398, 24.617579080259741 ], [ 121.056732607460347, 24.617739029743579 ], [ 121.056675470078815, 24.617259333462616 ], [ 121.056903876089265, 24.616973785321605 ], [ 121.057166552637895, 24.616779607356733 ], [ 121.057212209302349, 24.616345591054532 ], [ 121.05741778400666, 24.616231365045426 ], [ 121.057710119419696, 24.616307912941707 ], [ 121.058030693378413, 24.616940525537828 ], [ 121.059047167541522, 24.616677777309857 ], [ 121.0595650057613, 24.61663099787096 ], [ 121.059770611106728, 24.616973629361208 ], [ 121.059313776625316, 24.617213504357643 ], [ 121.059035796875349, 24.617454434421624 ], [ 121.059664006475785, 24.618071156341571 ], [ 121.059942022506732, 24.618401296802443 ], [ 121.059833076265093, 24.61872821176307 ], [ 121.059302440012061, 24.618526966917994 ] ] ] ] } },
{ "type": "Feature", "properties": { "OBJECTID_1": 4, "OBJECTID_2": 4, "OBJECTID": 4, "番號": "38", "類型": "蕃", "分區": "準要", "Shape_Leng": 0.00481929578, "Shape_Area": 1.37306e-06 }, "geometry": { "type": "MultiPolygon", "coordinates": [ [ [ [ 121.044113624920811, 24.567687063293373 ], [ 121.044151664152096, 24.567192132716034 ], [ 121.043980310188786, 24.56665914339958 ], [ 121.043466335379875, 24.566373635594186 ], [ 121.043066582762876, 24.566240407420505 ], [ 121.042781088933111, 24.566338310552982 ], [ 121.04299910303061, 24.566918405635338 ], [ 121.043642179911203, 24.568005651319481 ], [ 121.044113624920811, 24.567687063293373 ] ] ] ] } },
{ "type": "Feature", "properties": { "OBJECTID_1": 6, "OBJECTID_2": 6, "OBJECTID": 6, "番號": "33", "類型": "蕃", "分區": "準要", "Shape_Leng": 0.02046507234, "Shape_Area": 2.314627e-05 }, "geometry": { "type": "MultiPolygon", "coordinates": [ [ [ [ 121.049222796644457, 24.584318337077026 ], [ 121.049588253901817, 24.583964253149865 ], [ 121.050380465760767, 24.582874921318961 ], [ 121.050739872369775, 24.581979646278761 ], [ 121.050854024713786, 24.58104308409019 ], [ 121.050758590840104, 24.578717000379207 ], [ 121.050018486092767, 24.57636325076534 ], [ 121.049380365558775, 24.576166219642303 ], [ 121.048626571622108, 24.576291896805824 ], [ 121.047700176539422, 24.576344139294783 ], [ 121.047616884425295, 24.576443062072208 ], [ 121.046730557261739, 24.576967309870511 ], [ 121.047042912851836, 24.577482995758171 ], [ 121.047259985394291, 24.578533753883775 ], [ 121.047454288791968, 24.580726655204597 ], [ 121.048025455110974, 24.582325621835537 ], [ 121.048438235861227, 24.58393702390509 ], [ 121.048505269410143, 24.584198708649044 ], [ 121.048548537943574, 24.5843933079422 ], [ 121.049222796644457, 24.584318337077026 ] ] ] ] } },
{ "type": "Feature", "properties": { "OBJECTID_1": 7, "OBJECTID_2": 7, "OBJECTID": 7, "番號": "46ノ一", "類型": "蕃", "分區": "準要", "Shape_Leng": 0.08870260031, "Shape_Area": 0.00017348443 }, "geometry": { "type": "MultiPolygon", "coordinates": [ [ [ [ 120.974956567229498, 24.538093371397697 ], [ 120.975550420380387, 24.53729383980113 ], [ 120.976075774275685, 24.536928325794591 ], [ 120.976624004855807, 24.537076774177493 ], [ 120.976966667744378, 24.53747650527874 ], [ 120.977195114025292, 24.537796292817482 ], [ 120.977448835574151, 24.537980001619026 ], [ 120.978945171260648, 24.537210339727011 ], [ 120.980563148847551, 24.53669628833287 ], [ 120.981457789758849, 24.536315526074116 ], [ 120.982572034036281, 24.53606038993534 ], [ 120.984264072489964, 24.534034667196188 ], [ 120.986538627120808, 24.531274367976291 ], [ 120.987357086419891, 24.530293985796177 ], [ 120.987575946790528, 24.529570617493754 ], [ 120.987337966848131, 24.528999558915437 ], [ 120.986842993765279, 24.528190568870194 ], [ 120.986119611177102, 24.527629055039629 ], [ 120.985757925574788, 24.527429200261977 ], [ 120.985025062312999, 24.527448275957642 ], [ 120.983892479359127, 24.527829051097783 ], [ 120.982217396840156, 24.528362141508488 ], [ 120.981322751601652, 24.528676278353466 ], [ 120.980485217739854, 24.529057037499751 ], [ 120.979581045235804, 24.529218889912062 ], [ 120.979428752569191, 24.529066613218717 ], [ 120.979771371934547, 24.528781058892406 ], [ 120.979657029811733, 24.526791835095857 ], [ 120.979561812473094, 24.526163662696771 ], [ 120.979523588168789, 24.523803238574949 ], [ 120.979371231379176, 24.522661104752054 ], [ 120.979133263776475, 24.522280403925645 ], [ 120.978800123570693, 24.52197585118418 ], [ 120.978419401045201, 24.521756961475965 ], [ 120.977391458738481, 24.521300160550094 ], [ 120.976696632309313, 24.520786233694622 ], [ 120.976315894369975, 24.52032939767961 ], [ 120.976096948276307, 24.519729785469313 ], [ 120.975449766715556, 24.520081980798722 ], [ 120.975126187340351, 24.520434158586202 ], [ 120.975059943023638, 24.520846518565389 ], [ 120.974583694878376, 24.520710206215202 ], [ 120.974003103247199, 24.520529398353109 ], [ 120.973393966265746, 24.520481841934327 ], [ 120.972690450694515, 24.520509290519573 ], [ 120.972661104496211, 24.520510435149223 ], [ 120.971814036898621, 24.520653248495712 ], [ 120.971252505945316, 24.520872190189053 ], [ 120.970986027798503, 24.521148221958022 ], [ 120.970871817938786, 24.521186299163446 ], [ 120.970443498005821, 24.520834162134754 ], [ 120.970100823754152, 24.520272627638615 ], [ 120.968806429788586, 24.520501126591181 ], [ 120.96749698511816, 24.520870706658858 ], [ 120.966855709861136, 24.521953286341969 ], [ 120.966365128715964, 24.522542064224066 ], [ 120.966743675178776, 24.522515003774668 ], [ 120.96667517204024, 24.52290333578912 ], [ 120.966218364008824, 24.523554380922882 ], [ 120.966137691908656, 24.523867074290891 ], [ 120.96771877277871, 24.524645227972652 ], [ 120.968756250675852, 24.525368527279799 ], [ 120.969479452271344, 24.52607870992156 ], [ 120.969517484177999, 24.525469566240968 ], [ 120.969536375904738, 24.523261423929029 ], [ 120.970545243983636, 24.523109084275763 ], [ 120.972125201717461, 24.523375498407805 ], [ 120.973324476094419, 24.524041682867704 ], [ 120.973743269384414, 24.524251052084473 ], [ 120.974409542743615, 24.524764979587754 ], [ 120.975551747955436, 24.526002238632913 ], [ 120.975723112977434, 24.526706549834266 ], [ 120.9755328204769, 24.527658344482465 ], [ 120.974999875304135, 24.528381729833736 ], [ 120.974352685734814, 24.528610193709078 ], [ 120.97338191001441, 24.529086138070692 ], [ 120.972715757541295, 24.530437709123099 ], [ 120.971802218764665, 24.53293143480499 ], [ 120.970891410167269, 24.532689841680146 ], [ 120.971278987127135, 24.533739337959467 ], [ 120.971588366759576, 24.534572132364922 ], [ 120.97218338275313, 24.535160238933994 ], [ 120.972390305009171, 24.53488430301655 ], [ 120.972866190279277, 24.534874759675006 ], [ 120.973075607906338, 24.535303051493088 ], [ 120.973218386886799, 24.535512435673308 ], [ 120.973713322369164, 24.535740837607204 ], [ 120.973989351494964, 24.535969250515638 ], [ 120.973513492758855, 24.536388061976556 ], [ 120.973189920807542, 24.536854453719972 ], [ 120.973009121050922, 24.537425535030888 ], [ 120.972904765066843, 24.538089906099444 ], [ 120.97333847606275, 24.538076537526667 ], [ 120.973886709450582, 24.538282093778708 ], [ 120.974266464111381, 24.538566879578124 ], [ 120.974956567229498, 24.538093371397697 ] ], [ [ 120.972817728700093, 24.533119278745573 ], [ 120.9728266382172, 24.532384800785401 ], [ 120.973159745460364, 24.532194425851394 ], [ 120.973683224433444, 24.532261021958739 ], [ 120.973845056372312, 24.532736905799094 ], [ 120.97368328612545, 24.533212807190925 ], [ 120.972817728700093, 24.533119278745573 ] ] ] ] } },
{ "type": "Feature", "properties": { "OBJECTID_1": 8, "OBJECTID_2": 8, "OBJECTID": 8, "番號": "46", "類型": "蕃", "分區": "準要", "Shape_Leng": 0.00821046707, "Shape_Area": 3.98764e-06 }, "geometry": { "type": "MultiPolygon", "coordinates": [ [ [ [ 120.97542366515583, 24.520998363816208 ], [ 120.975059943023638, 24.520846518565389 ], [ 120.974583694878376, 24.520710206215202 ], [ 120.974003103247199, 24.520529398353109 ], [ 120.973393966265746, 24.520481841934327 ], [ 120.972690450694515, 24.520509290519573 ], [ 120.972483698717454, 24.521859222365705 ], [ 120.97521627477164, 24.522252652757107 ], [ 120.97542366515583, 24.520998363816208 ] ] ] ] } },
{ "type": "Feature", "properties": { "OBJECTID_1": 10, "OBJECTID_2": 10, "OBJECTID": 10, "番號": "46ノ二", "類型": "蕃", "分區": "準要", "Shape_Leng": 0.00778836007, "Shape_Area": 3.96037e-06 }, "geometry": { "type": "MultiPolygon", "coordinates": [ [ [ [ 120.972846821271744, 24.528927304490502 ], [ 120.972816775615001, 24.527071938429753 ], [ 120.970578215459554, 24.527163431869393 ], [ 120.970502129769386, 24.528016234619759 ], [ 120.970852418701355, 24.528594900790537 ], [ 120.97124838162118, 24.52899082217845 ], [ 120.972846821271744, 24.528927304490502 ] ] ] ] } },
{ "type": "Feature", "properties": { "OBJECTID_1": 11, "OBJECTID_2": 11, "OBJECTID": 11, "番號": "28", "類型": "蕃", "分區": "準要", "Shape_Leng": 0.00725847376, "Shape_Area": 3.07687e-06 }, "geometry": { "type": "MultiPolygon", "coordinates": [ [ [ [ 120.964094543262519, 24.531766494722859 ], [ 120.96437965435446, 24.531853596618749 ], [ 120.964348003946569, 24.530811345747111 ], [ 120.963462786287806, 24.529726358602154 ], [ 120.9628861176882, 24.529410860818771 ], [ 120.962701039128959, 24.530053358458822 ], [ 120.962758225238147, 24.531286867739809 ], [ 120.962934536872723, 24.531886196292785 ], [ 120.962986700232719, 24.532063511959041 ], [ 120.964094543262519, 24.531766494722859 ] ] ] ] } },
{ "type": "Feature", "properties": { "OBJECTID_1": 12, "OBJECTID_2": 12, "OBJECTID": 12, "番號": "45", "類型": "蕃", "分區": "準要", "Shape_Leng": 0.03385181726, "Shape_Area": 3.328041e-05 }, "geometry": { "type": "MultiPolygon", "coordinates": [ [ [ [ 120.972715757541295, 24.530437709123099 ], [ 120.97338191001441, 24.529086138070692 ], [ 120.974352685734814, 24.528610193709078 ], [ 120.974999875304135, 24.528381729833736 ], [ 120.9755328204769, 24.527658344482465 ], [ 120.975709957642806, 24.526772347669365 ], [ 120.975723112977434, 24.526706549834266 ], [ 120.975551747955436, 24.526002238632913 ], [ 120.974409542743615, 24.524764979587754 ], [ 120.973743269384414, 24.524251052084473 ], [ 120.973324476094419, 24.524041682867704 ], [ 120.972125201717461, 24.523375498407805 ], [ 120.970545243983636, 24.523109084275763 ], [ 120.969536375904738, 24.523261423929029 ], [ 120.969517484177999, 24.525469566240968 ], [ 120.969479452271344, 24.52607870992156 ], [ 120.969517782707513, 24.527148324099308 ], [ 120.969874781930045, 24.528457008546983 ], [ 120.97054118545455, 24.5309792020361 ], [ 120.97070782434858, 24.532192718820923 ], [ 120.970891410167269, 24.532689841680146 ], [ 120.971802218764665, 24.53293143480499 ], [ 120.972715757541295, 24.530437709123099 ] ], [ [ 120.970852418701355, 24.528594900790537 ], [ 120.970502129769386, 24.528016234619759 ], [ 120.970578215459554, 24.527163431869393 ], [ 120.972816775615001, 24.527071938429753 ], [ 120.972846821271744, 24.528927304490502 ], [ 120.97124838162118, 24.52899082217845 ], [ 120.970852418701355, 24.528594900790537 ] ] ] ] } },
{ "type": "Feature", "properties": { "OBJECTID_1": 14, "OBJECTID_2": 14, "OBJECTID": 14, "番號": "44", "類型": "蕃", "分區": "準要", "Shape_Leng": 0.00352181323, "Shape_Area": 8.6386e-07 }, "geometry": { "type": "MultiPolygon", "coordinates": [ [ [ [ 120.973845056372312, 24.532736905799094 ], [ 120.973683224433444, 24.532261021958739 ], [ 120.973159745460364, 24.532194425851394 ], [ 120.9728266382172, 24.532384800785401 ], [ 120.972817728700093, 24.533119278745573 ], [ 120.97368328612545, 24.533212807190925 ], [ 120.973845056372312, 24.532736905799094 ] ] ] ] } },
{ "type": "Feature", "properties": { "OBJECTID_1": 17, "OBJECTID_2": 17, "OBJECTID": 17, "番號": "27", "類型": "蕃", "分區": "準要", "Shape_Leng": 0.02553757663, "Shape_Area": 2.986274e-05 }, "geometry": { "type": "MultiPolygon", "coordinates": [ [ [ [ 120.970146246264378, 24.534625701382911 ], [ 120.969917690818576, 24.532607930251135 ], [ 120.970869466634454, 24.532684020657268 ], [ 120.970891410167269, 24.532689841680146 ], [ 120.97070782434858, 24.532192718820923 ], [ 120.97054118545455, 24.5309792020361 ], [ 120.969874781930045, 24.528457008546983 ], [ 120.969517782707513, 24.527148324099308 ], [ 120.969479452271344, 24.52607870992156 ], [ 120.968698973975236, 24.525679002548515 ], [ 120.967728184668829, 24.525945554984059 ], [ 120.966110226744632, 24.526764178064447 ], [ 120.965824776438467, 24.528020549603188 ], [ 120.96616750560446, 24.529429172033876 ], [ 120.96643405961585, 24.530323834956352 ], [ 120.966396070900956, 24.531599229034359 ], [ 120.966529416387885, 24.533103041704972 ], [ 120.968356806106399, 24.532931621677267 ], [ 120.968525343668588, 24.535008600261964 ], [ 120.970146246264378, 24.534625701382911 ] ] ] ] } },
{ "type": "Feature", "properties": { "OBJECTID_1": 18, "OBJECTID_2": 18, "OBJECTID": 18, "番號": "28ノ一", "類型": "蕃", "分區": "準要", "Shape_Leng": 0.05021526653, "Shape_Area": 3.487939e-05 }, "geometry": { "type": "MultiPolygon", "coordinates": [ [ [ [ 120.969084132815425, 24.537553194521784 ], [ 120.969588527076311, 24.536877400138589 ], [ 120.969940652728781, 24.536420524371355 ], [ 120.970511689623734, 24.536011226172256 ], [ 120.970968498485135, 24.53537350538846 ], [ 120.971583282074945, 24.53455844495425 ], [ 120.971278987127135, 24.533739337959467 ], [ 120.970891410167269, 24.532689841680146 ], [ 120.970869466634454, 24.532684020657268 ], [ 120.969917690818576, 24.532607930251135 ], [ 120.970146246264378, 24.534625701382911 ], [ 120.968525343668588, 24.535008600261964 ], [ 120.968356806106399, 24.532931621677267 ], [ 120.966529416387885, 24.533103041704972 ], [ 120.966396070900956, 24.531599229034359 ], [ 120.96643405961585, 24.530323834956352 ], [ 120.96616750560446, 24.529429172033876 ], [ 120.965824776438467, 24.528020549603188 ], [ 120.966110226744632, 24.526764178064447 ], [ 120.967728184668829, 24.525945554984059 ], [ 120.968698973975236, 24.525679002548515 ], [ 120.969479452271344, 24.52607870992156 ], [ 120.968756250675852, 24.525368527279799 ], [ 120.96771877277871, 24.524645227972652 ], [ 120.966137691908656, 24.523867074290891 ], [ 120.966127017085668, 24.523908449994231 ], [ 120.965533114304733, 24.523942746378008 ], [ 120.96559025672704, 24.524502392494195 ], [ 120.965407528103214, 24.524673724214157 ], [ 120.965042042576385, 24.524593794271844 ], [ 120.964939286261711, 24.525130606270402 ], [ 120.964847945841157, 24.525598889285067 ], [ 120.963397609399578, 24.528111679159739 ], [ 120.962895156414859, 24.529379483869906 ], [ 120.9628861176882, 24.529410860818771 ], [ 120.963462786287806, 24.529726358602154 ], [ 120.964348003946569, 24.530811345747111 ], [ 120.96437965435446, 24.531853596618749 ], [ 120.964505716684116, 24.531892108658607 ], [ 120.964871204274957, 24.532017724172636 ], [ 120.965248122140807, 24.532268975302582 ], [ 120.965396619053578, 24.532577344893102 ], [ 120.96504258288951, 24.532931428216379 ], [ 120.96508828928998, 24.533262647069972 ], [ 120.96682440984209, 24.534644544302761 ], [ 120.967246991167528, 24.534564571621733 ], [ 120.967452589644083, 24.534815831142303 ], [ 120.967760987517991, 24.535181299927938 ], [ 120.968035139305599, 24.535832306325172 ], [ 120.968137979427837, 24.536574692269102 ], [ 120.967806802027241, 24.537180045926011 ], [ 120.96815635037197, 24.53747395249707 ], [ 120.968661499930064, 24.536837855960016 ], [ 120.969038412059092, 24.537014486710461 ], [ 120.968421985020058, 24.537739936962076 ], [ 120.968577705604218, 24.537929819535332 ], [ 120.969084132815425, 24.537553194521784 ] ] ] ] } },
{ "type": "Feature", "properties": { "OBJECTID_1": 19, "OBJECTID_2": 19, "OBJECTID": 19, "番號": "26", "類型": "蕃", "分區": "準要", "Shape_Leng": 0.01042896208, "Shape_Area": 3.38492e-06 }, "geometry": { "type": "MultiPolygon", "coordinates": [ [ [ [ 120.969306773250509, 24.53808246693767 ], [ 120.96997298986777, 24.537720753014558 ], [ 120.970410769209082, 24.537178211244903 ], [ 120.971200681889783, 24.536283491022182 ], [ 120.971933494297019, 24.535493470312598 ], [ 120.97218338275313, 24.535160238933994 ], [ 120.971588366759576, 24.534572132364922 ], [ 120.971583282074945, 24.53455844495425 ], [ 120.970968498485135, 24.53537350538846 ], [ 120.970511689623734, 24.536011226172256 ], [ 120.969940652728781, 24.536420524371355 ], [ 120.969588527076311, 24.536877400138589 ], [ 120.969084132815425, 24.537553194521784 ], [ 120.968577705604218, 24.537929819535332 ], [ 120.968777673023908, 24.538173656352864 ], [ 120.968793299511248, 24.538202673041003 ], [ 120.969306773250509, 24.53808246693767 ] ] ] ] } },
{ "type": "Feature", "properties": { "OBJECTID_1": 22, "OBJECTID_2": 22, "OBJECTID": 22, "番號": "25", "類型": "蕃", "分區": "準要", "Shape_Leng": 0.00482220608, "Shape_Area": 1.0357e-06 }, "geometry": { "type": "MultiPolygon", "coordinates": [ [ [ [ 120.973974383130937, 24.53876728782938 ], [ 120.974266464111381, 24.538566879578124 ], [ 120.973886709450582, 24.538282093778708 ], [ 120.97333847606275, 24.538076537526667 ], [ 120.972904765066843, 24.538089906099444 ], [ 120.97290446931602, 24.538091790195889 ], [ 120.972952113007679, 24.538938875539589 ], [ 120.972632646471922, 24.539461719327097 ], [ 120.973974383130937, 24.53876728782938 ] ] ] ] } },
{ "type": "Feature", "properties": { "OBJECTID_1": 30, "OBJECTID_2": 30, "OBJECTID": 30, "番號": "43", "類型": "蕃", "分區": "準要", "Shape_Leng": 0.01931073172, "Shape_Area": 2.167356e-05 }, "geometry": { "type": "MultiPolygon", "coordinates": [ [ [ [ 121.030990648936267, 24.545501400156102 ], [ 121.03147033190082, 24.545352895124012 ], [ 121.031951331152683, 24.545310675523279 ], [ 121.032069121020996, 24.544341639500775 ], [ 121.031764436060527, 24.54251422959527 ], [ 121.031574036242844, 24.541809919506772 ], [ 121.031573951077419, 24.54049645664886 ], [ 121.031497769743865, 24.539887318337055 ], [ 121.031516714101244, 24.538478675575913 ], [ 121.030622041215665, 24.538364510179022 ], [ 121.029917741886649, 24.538535870173522 ], [ 121.029156333933827, 24.538669161357607 ], [ 121.028166533783846, 24.539316428506641 ], [ 121.028185722849898, 24.541695888498165 ], [ 121.02811752309816, 24.543225828236398 ], [ 121.029195678466394, 24.544129690245317 ], [ 121.03028458092129, 24.545302229590799 ], [ 121.030458110247096, 24.545640564997338 ], [ 121.030990648936267, 24.545501400156102 ] ] ] ] } },
{ "type": "Feature", "properties": { "OBJECTID_1": 36, "OBJECTID_2": 36, "OBJECTID": 36, "番號": "41", "類型": "蕃", "分區": "準要", "Shape_Leng": 0.01308897235, "Shape_Area": 1.066462e-05 }, "geometry": { "type": "MultiPolygon", "coordinates": [ [ [ [ 121.032889318779709, 24.55499633171533 ], [ 121.034396913719362, 24.554824928995114 ], [ 121.035150703247268, 24.554630724404976 ], [ 121.03597017368655, 24.55400444136691 ], [ 121.036018580942553, 24.553479651824937 ], [ 121.035942398594329, 24.552855285292537 ], [ 121.035335291528753, 24.552157536797644 ], [ 121.034568055067069, 24.552095201444761 ], [ 121.033654356291223, 24.552118093818269 ], [ 121.032809210092438, 24.552529310725227 ], [ 121.032329556034099, 24.553123250081796 ], [ 121.031827045434525, 24.553500184217 ], [ 121.031118951780911, 24.553877129511186 ], [ 121.030879150399159, 24.554562426995957 ], [ 121.031941360754985, 24.555087755210302 ], [ 121.032889318779709, 24.55499633171533 ] ] ] ] } },
{ "type": "Feature", "properties": { "OBJECTID_1": 38, "OBJECTID_2": 38, "OBJECTID": 38, "番號": "40", "類型": "蕃", "分區": "準要", "Shape_Leng": 0.00754136674, "Shape_Area": 2.84397e-06 }, "geometry": { "type": "MultiPolygon", "coordinates": [ [ [ [ 121.040340817720121, 24.561152705408915 ], [ 121.040494976531804, 24.560724393916015 ], [ 121.040243685578901, 24.560370343486767 ], [ 121.039672580525647, 24.559713642614341 ], [ 121.039586872741907, 24.558965545148542 ], [ 121.039079234690561, 24.558253887742286 ], [ 121.038918687443299, 24.558325981633018 ], [ 121.038604648448214, 24.559016994736112 ], [ 121.038599005291061, 24.560056343575447 ], [ 121.038741785870698, 24.560290475273597 ], [ 121.039849705018781, 24.561169864160405 ], [ 121.040340817720121, 24.561152705408915 ] ] ] ] } },
{ "type": "Feature", "properties": { "OBJECTID_1": 39, "OBJECTID_2": 39, "OBJECTID": 39, "番號": "39", "類型": "蕃", "分區": "準要", "Shape_Leng": 0.01239267242, "Shape_Area": 8.41575e-06 }, "geometry": { "type": "MultiPolygon", "coordinates": [ [ [ [ 121.042294469134319, 24.561866437283104 ], [ 121.043916206650479, 24.560621415648416 ], [ 121.044989686243767, 24.558805351461235 ], [ 121.044751164958726, 24.558276818335667 ], [ 121.04312416780455, 24.558073531223407 ], [ 121.042311839992692, 24.55806683399965 ], [ 121.042199086461096, 24.558774979950897 ], [ 121.041445461523139, 24.561504739093824 ], [ 121.041589133795412, 24.562314235536537 ], [ 121.042294469134319, 24.561866437283104 ] ] ] ] } },
{ "type": "Feature", "properties": { "OBJECTID_1": 40, "OBJECTID_2": 40, "OBJECTID": 40, "番號": "37", "類型": "蕃", "分區": "準要", "Shape_Leng": 0.00811801538, "Shape_Area": 3.15251e-06 }, "geometry": { "type": "MultiPolygon", "coordinates": [ [ [ [ 121.03971297155546, 24.564041431835516 ], [ 121.039120029661561, 24.56182237466361 ], [ 121.038082496363586, 24.5608120891978 ], [ 121.038082277755436, 24.560810918292088 ], [ 121.037971027021129, 24.56091015465071 ], [ 121.037942509777253, 24.561462191678814 ], [ 121.037790250479262, 24.561823877680929 ], [ 121.037790277663944, 24.562242663278269 ], [ 121.038018743672311, 24.562880346799933 ], [ 121.038513695439761, 24.563346694062439 ], [ 121.039522618648633, 24.564060477225862 ], [ 121.039742918911557, 24.564074527067284 ], [ 121.03971297155546, 24.564041431835516 ] ] ] ] } },
{ "type": "Feature", "properties": { "OBJECTID_1": 41, "OBJECTID_2": 41, "OBJECTID": 41, "番號": "36", "類型": "蕃", "分區": "準要", "Shape_Leng": 0.00794830115, "Shape_Area": 2.58108e-06 }, "geometry": { "type": "MultiPolygon", "coordinates": [ [ [ [ 121.041293835473581, 24.566051990447527 ], [ 121.039999316955033, 24.564357884193569 ], [ 121.039866154239832, 24.565671354281179 ], [ 121.04015172916047, 24.566337588180438 ], [ 121.040665729929287, 24.56702284562942 ], [ 121.041122610949884, 24.567498712481118 ], [ 121.04159193096018, 24.567748986366293 ], [ 121.041293835473581, 24.566051990447527 ] ] ] ] } },
{ "type": "Feature", "properties": { "OBJECTID_1": 42, "OBJECTID_2": 42, "OBJECTID": 42, "番號": "35", "類型": "蕃", "分區": "準要", "Shape_Leng": 0.00871296558, "Shape_Area": 2.9157e-06 }, "geometry": { "type": "MultiPolygon", "coordinates": [ [ [ [ 121.043176350723442, 24.57088057873943 ], [ 121.042821042196195, 24.569435120971228 ], [ 121.042344771678927, 24.568842566314011 ], [ 121.041631813891158, 24.567976028896179 ], [ 121.041682193331312, 24.568933516581364 ], [ 121.041895477948643, 24.570288846593478 ], [ 121.042398077274115, 24.571278675427514 ], [ 121.043393817862324, 24.571679341359019 ], [ 121.043176350723442, 24.57088057873943 ] ] ] ] } },
{ "type": "Feature", "properties": { "OBJECTID_1": 45, "OBJECTID_2": 45, "OBJECTID": 45, "番號": "34", "類型": "蕃", "分區": "準要", "Shape_Leng": 0.02017495601, "Shape_Area": 2.17134e-05 }, "geometry": { "type": "MultiPolygon", "coordinates": [ [ [ [ 121.047616884425295, 24.576443062072208 ], [ 121.047700176539422, 24.576344139294783 ], [ 121.048165062988019, 24.57579201201926 ], [ 121.048667547569849, 24.575015328232759 ], [ 121.048656097405456, 24.574569893646146 ], [ 121.048941535430302, 24.573142201377681 ], [ 121.049489670075758, 24.571828708769814 ], [ 121.049729469337933, 24.571097724827531 ], [ 121.049809329684962, 24.56973857208617 ], [ 121.049580871703711, 24.569224620931706 ], [ 121.048792752357301, 24.568413743064713 ], [ 121.047502245567316, 24.569875754087057 ], [ 121.046348800221352, 24.571440551107276 ], [ 121.045697840373663, 24.572228664349005 ], [ 121.045179390942423, 24.572571557317403 ], [ 121.045192356105531, 24.572651837312073 ], [ 121.045432274059593, 24.573748279770612 ], [ 121.045923482827334, 24.575210194941363 ], [ 121.046551746366049, 24.576672101765975 ], [ 121.046730557261739, 24.576967309870511 ], [ 121.047616884425295, 24.576443062072208 ] ] ] ] } },
{ "type": "Feature", "properties": { "OBJECTID_1": 47, "OBJECTID_2": 47, "OBJECTID": 47, "番號": "31", "類型": "蕃", "分區": "準要", "Shape_Leng": 0.01453314229, "Shape_Area": 1.420664e-05 }, "geometry": { "type": "MultiPolygon", "coordinates": [ [ [ [ 121.046429834355862, 24.591965375638836 ], [ 121.047010321624228, 24.590528149776407 ], [ 121.047267189169105, 24.588833958372636 ], [ 121.045658690981895, 24.588757903770368 ], [ 121.043450597091081, 24.588986451627704 ], [ 121.042319447148259, 24.590296496493075 ], [ 121.042169207019967, 24.59057797634053 ], [ 121.042602723593973, 24.591365483891845 ], [ 121.043566651535002, 24.591979785519563 ], [ 121.045007874674297, 24.592486221670821 ], [ 121.045825461277644, 24.592722473256579 ], [ 121.046429834355862, 24.591965375638836 ] ] ] ] } },
{ "type": "Feature", "properties": { "OBJECTID_1": 49, "OBJECTID_2": 50, "OBJECTID": 50, "番號": "30", "類型": "蕃", "分區": "準要", "Shape_Leng": 0.03130457682, "Shape_Area": 4.227067e-05 }, "geometry": { "type": "MultiPolygon", "coordinates": [ [ [ [ 121.054991445775556, 24.596391327620715 ], [ 121.054896219022652, 24.595620387002871 ], [ 121.054267935688756, 24.593869137669568 ], [ 121.054182234379624, 24.593221928885399 ], [ 121.054020386287348, 24.592498581323444 ], [ 121.053544416959511, 24.591213697835627 ], [ 121.053173161727642, 24.590223861895272 ], [ 121.05306650942957, 24.5893862974069 ], [ 121.052883721330019, 24.588655336420082 ], [ 121.052974987142136, 24.587041104685863 ], [ 121.052929258759633, 24.586386280066911 ], [ 121.05270077575878, 24.585487807506258 ], [ 121.052350476892485, 24.584756855621112 ], [ 121.05186315205718, 24.584482768680417 ], [ 121.050401285337387, 24.585305189278049 ], [ 121.050285047814739, 24.585443943930294 ], [ 121.049457201449599, 24.586432154312305 ], [ 121.049228853153551, 24.587619993350859 ], [ 121.049350783851793, 24.589218985287907 ], [ 121.049487915834973, 24.590406804466273 ], [ 121.049518484627825, 24.592127629857853 ], [ 121.049229190751703, 24.592812930938997 ], [ 121.048863738208766, 24.593239350061598 ], [ 121.04854254525101, 24.593556185261477 ], [ 121.053155251429359, 24.595817024921907 ], [ 121.055084545304595, 24.597018466726958 ], [ 121.054991445775556, 24.596391327620715 ] ] ] ] } },
{ "type": "Feature", "properties": { "OBJECTID_1": 50, "OBJECTID_2": 51, "OBJECTID": 52, "番號": "24", "類型": "蕃", "分區": "準要", "Shape_Leng": 0.0676081357, "Shape_Area": 0.00012641661 }, "geometry": { "type": "MultiPolygon", "coordinates": [ [ [ [ 121.037831026296857, 24.598794897991521 ], [ 121.039163467502092, 24.598199959836272 ], [ 121.040053338247162, 24.59766691192306 ], [ 121.041262052255746, 24.597124329150756 ], [ 121.042413661347695, 24.596600785440359 ], [ 121.04353669445976, 24.595725082176045 ], [ 121.044850047670735, 24.594325887469665 ], [ 121.045487657790176, 24.593145639829366 ], [ 121.045825461277644, 24.592722473256579 ], [ 121.045007874674297, 24.592486221670821 ], [ 121.043566651535002, 24.591979785519563 ], [ 121.042602723593973, 24.591365483891845 ], [ 121.042169207019967, 24.59057797634053 ], [ 121.041826068718038, 24.591220854829317 ], [ 121.041392102645077, 24.591860477313464 ], [ 121.040455608462992, 24.592606727379856 ], [ 121.039480989846865, 24.592523022874513 ], [ 121.038590090974225, 24.591891086959603 ], [ 121.038216911094935, 24.590581451193625 ], [ 121.038039570336792, 24.589466770657694 ], [ 121.037753888325582, 24.58715394962795 ], [ 121.037354050601166, 24.585697741065964 ], [ 121.036582995109711, 24.583841803023557 ], [ 121.035783405107139, 24.582271401349939 ], [ 121.034955289865906, 24.581129305254944 ], [ 121.033813072229648, 24.579701690499366 ], [ 121.032613756819771, 24.578416846252015 ], [ 121.031899911402249, 24.578159902791608 ], [ 121.031071884257273, 24.578359823051326 ], [ 121.030615089782032, 24.579216454140543 ], [ 121.030472408842058, 24.580529924785683 ], [ 121.030672355497956, 24.581672055021915 ], [ 121.030301209130172, 24.582357360567457 ], [ 121.028959293457433, 24.583613788515308 ], [ 121.028216926498715, 24.583842257614531 ], [ 121.027617344381781, 24.584356253783351 ], [ 121.027474634670284, 24.58521286781972 ], [ 121.028188529312132, 24.586240756203427 ], [ 121.02907369877363, 24.586583350792559 ], [ 121.03064412717643, 24.586668925898064 ], [ 121.031614946583616, 24.586868748417594 ], [ 121.032443024732885, 24.58743977396626 ], [ 121.034156219462972, 24.587553894792666 ], [ 121.034776763242746, 24.587408416374934 ], [ 121.035384024875626, 24.587867917272856 ], [ 121.035412602081891, 24.588239111889699 ], [ 121.035127114007253, 24.588895858398839 ], [ 121.034356281233926, 24.590466345423231 ], [ 121.033214311411001, 24.592864904520187 ], [ 121.032818787629381, 24.593981088398618 ], [ 121.032957333551593, 24.594093232651865 ], [ 121.033916776165924, 24.594976437289397 ], [ 121.034967571789963, 24.595600750850732 ], [ 121.035683323159063, 24.595890054496579 ], [ 121.036246794905139, 24.5962555093395 ], [ 121.036825518336954, 24.596971219703143 ], [ 121.037206289020418, 24.597930597809942 ], [ 121.037548623322095, 24.598808605526862 ], [ 121.037831026296857, 24.598794897991521 ] ] ] ] } },
{ "type": "Feature", "properties": { "OBJECTID_1": 56, "OBJECTID_2": 57, "OBJECTID": 58, "番號": "22", "類型": "蕃", "分區": "準要", "Shape_Leng": 0.00345169316, "Shape_Area": 8.7101e-07 }, "geometry": { "type": "MultiPolygon", "coordinates": [ [ [ [ 121.048556684223357, 24.60572360817844 ], [ 121.04871655906139, 24.60536572857897 ], [ 121.048389122509221, 24.60495457534703 ], [ 121.048008406802836, 24.60484038212271 ], [ 121.047650548914191, 24.604962230072001 ], [ 121.047475441113846, 24.605243967582293 ], [ 121.047620138074251, 24.605670358976287 ], [ 121.048217532186129, 24.605834914154759 ], [ 121.048556684223357, 24.60572360817844 ] ] ] ] } },
{ "type": "Feature", "properties": { "OBJECTID_1": 59, "OBJECTID_2": 60, "OBJECTID": 61, "番號": "21", "類型": "蕃", "分區": "準要", "Shape_Leng": 0.0022129981, "Shape_Area": 3.3775e-07 }, "geometry": { "type": "MultiPolygon", "coordinates": [ [ [ [ 121.054847261006884, 24.610666518556886 ], [ 121.054833741850373, 24.610365017009997 ], [ 121.054377526864243, 24.61007799344846 ], [ 121.054161953100547, 24.610156399094389 ], [ 121.054108670079984, 24.610407672630505 ], [ 121.054253352674237, 24.610613250727965 ], [ 121.054573156936058, 24.61075029004515 ], [ 121.054847261006884, 24.610666518556886 ] ] ] ] } },
{ "type": "Feature", "properties": { "OBJECTID_1": 60, "OBJECTID_2": 61, "OBJECTID": 62, "番號": "23", "類型": "蕃", "分區": "準要", "Shape_Leng": 0.1002888436, "Shape_Area": 0.00011257878 }, "geometry": { "type": "MultiPolygon", "coordinates": [ [ [ [ 121.05815426022734, 24.611510016270273 ], [ 121.058062801187205, 24.610139451441054 ], [ 121.058245411694443, 24.608140693318774 ], [ 121.058467134379512, 24.606422920912784 ], [ 121.058075834269715, 24.60638489816338 ], [ 121.05770463658331, 24.60628022195181 ], [ 121.057361981443691, 24.606013740827123 ], [ 121.056981243451617, 24.605556904930978 ], [ 121.056695697838535, 24.605328492608013 ], [ 121.05604847041127, 24.604985885127842 ], [ 121.054944365295427, 24.604205481842538 ], [ 121.054049636993653, 24.603225191899316 ], [ 121.053954445235163, 24.603006286750841 ], [ 121.053944889454087, 24.602416180787223 ], [ 121.05427798667543, 24.602073519998605 ], [ 121.055210716373026, 24.601978291311646 ], [ 121.055448636357383, 24.601626118171986 ], [ 121.055429452089555, 24.599341836209177 ], [ 121.055084545304595, 24.597018466726958 ], [ 121.053155251429359, 24.595817024921907 ], [ 121.04854254525101, 24.593556185261477 ], [ 121.04780895272259, 24.594279825221957 ], [ 121.048094014672287, 24.594289527802978 ], [ 121.048512796881596, 24.594342804271911 ], [ 121.048748847237263, 24.594502691837405 ], [ 121.04874124466707, 24.594685434533332 ], [ 121.048619414940347, 24.594639755585117 ], [ 121.048535665088778, 24.594738745840544 ], [ 121.048512833521286, 24.594906261140622 ], [ 121.048611825739016, 24.595028084247797 ], [ 121.048779339396617, 24.5950585324888 ], [ 121.048885935669574, 24.595020454785889 ], [ 121.049106736818175, 24.594868157847657 ], [ 121.049281863534418, 24.59489099111331 ], [ 121.049358015271906, 24.595043271909422 ], [ 121.049373268440746, 24.595416371106186 ], [ 121.049510337068057, 24.595629563284486 ], [ 121.049715931591351, 24.595819908952272 ], [ 121.049830155686678, 24.595987416801613 ], [ 121.049769246810868, 24.596063563030132 ], [ 121.049304774820911, 24.595949374352728 ], [ 121.048817469687094, 24.595964629066881 ], [ 121.048528141652568, 24.596124544292575 ], [ 121.048162668316692, 24.596231164424861 ], [ 121.047903797690978, 24.596398692556818 ], [ 121.047644922204412, 24.596505306894588 ], [ 121.047188082491672, 24.596665231227441 ], [ 121.046959666303522, 24.596794685795818 ], [ 121.046533305788273, 24.597297252053018 ], [ 121.046099294669773, 24.597243975514935 ], [ 121.045571740184641, 24.596901973051985 ], [ 121.045559429225634, 24.596924839889134 ], [ 121.045226837934521, 24.597095912662006 ], [ 121.045383566592747, 24.597312542781353 ], [ 121.04533789306106, 24.597487673886292 ], [ 121.045132318342581, 24.597601898989957 ], [ 121.044858210390416, 24.597639984901246 ], [ 121.044572439504279, 24.597556867086801 ], [ 121.04455440273226, 24.597594950768038 ], [ 121.044554422540955, 24.597899521541066 ], [ 121.044143278147018, 24.598219343790735 ], [ 121.043716905836902, 24.598554395092883 ], [ 121.043001194998538, 24.598874233902333 ], [ 121.042162207860486, 24.599168671762339 ], [ 121.0418964204692, 24.599513258843427 ], [ 121.041873587418337, 24.599657931360838 ], [ 121.041637564204407, 24.599901600274642 ], [ 121.041348243101169, 24.600168115771613 ], [ 121.041203579330215, 24.600251881117707 ], [ 121.041043713802296, 24.600739203771898 ], [ 121.041153065597769, 24.601047320026655 ], [ 121.041531345621223, 24.601128358972588 ], [ 121.042641627957892, 24.601256459222331 ], [ 121.043342143477133, 24.601439163418966 ], [ 121.043723392378411, 24.60174537990882 ], [ 121.044136323854701, 24.601607708988436 ], [ 121.044669341809737, 24.602007429654261 ], [ 121.046078021720632, 24.602902030325598 ], [ 121.046858508633662, 24.603434987414346 ], [ 121.048019737260461, 24.604481887370625 ], [ 121.048100206374926, 24.604547957100845 ], [ 121.047933813169919, 24.604129156267526 ], [ 121.047876054554052, 24.603983783065093 ], [ 121.04768091832976, 24.603617356725877 ], [ 121.047542898193953, 24.603417488958531 ], [ 121.047000325388026, 24.602441939064999 ], [ 121.046852779192434, 24.602108822832474 ], [ 121.046814686773658, 24.601785218176026 ], [ 121.046881293570962, 24.601513955577126 ], [ 121.047100186544782, 24.601295033347874 ], [ 121.047409502225577, 24.601142731592955 ], [ 121.047766411618554, 24.601066569269175 ], [ 121.047904421566244, 24.60112366872896 ], [ 121.048032921831549, 24.601285465105601 ], [ 121.048123351968016, 24.601466299506427 ], [ 121.048099571688681, 24.601689969440507 ], [ 121.047928261902513, 24.601823228636778 ], [ 121.047718881058913, 24.601961249116592 ], [ 121.047647506418699, 24.602084985351691 ], [ 121.047657035574971, 24.602265823252178 ], [ 121.047780775456943, 24.602408584832499 ], [ 121.047909268012745, 24.602465684809445 ], [ 121.048071065978945, 24.602418086575618 ], [ 121.048342309332995, 24.602237232509225 ], [ 121.048537419240432, 24.602199150891035 ], [ 121.048665912385616, 24.602251491654545 ], [ 121.048770611320691, 24.602313352138619 ], [ 121.048899114711645, 24.602537014691563 ], [ 121.048927688839527, 24.602860619864259 ], [ 121.048927721037813, 24.603355548379131 ], [ 121.049003870922348, 24.603479275693029 ], [ 121.049113329032735, 24.603555412658949 ], [ 121.049246583830168, 24.603660101812647 ], [ 121.049270391043677, 24.603850457363063 ], [ 121.049284681514038, 24.604064607699346 ], [ 121.049351310940054, 24.604155023734947 ], [ 121.049470290128639, 24.604273990405645 ], [ 121.049594024747435, 24.604335849854124 ], [ 121.049736794769586, 24.604407225794933 ], [ 121.049836736416935, 24.604497640018955 ], [ 121.049865295684981, 24.604592817338045 ], [ 121.049906160008035, 24.604629685529879 ], [ 121.050141326151447, 24.604841852540535 ], [ 121.052292436454763, 24.606497840197811 ], [ 121.053472694565968, 24.607449561130217 ], [ 121.055090810452512, 24.609067506746833 ], [ 121.054496968520795, 24.610034552385162 ], [ 121.054377526864243, 24.61007799344846 ], [ 121.054833741850373, 24.610365017009997 ], [ 121.054891909769168, 24.610401613563976 ], [ 121.05610712274877, 24.610987997307262 ], [ 121.057268868538983, 24.611552237246329 ], [ 121.057768770400671, 24.611870322818017 ], [ 121.058102091812032, 24.611863530093171 ], [ 121.058257636514838, 24.61192095325071 ], [ 121.05815426022734, 24.611510016270273 ] ], [ [ 121.054342887695825, 24.607569525662171 ], [ 121.054246998755758, 24.60730587837066 ], [ 121.054075667637704, 24.607125049271581 ], [ 121.053894820056613, 24.606958496531401 ], [ 121.053504582937265, 24.606782437650917 ], [ 121.053242835895261, 24.606625407736704 ], [ 121.05328089057025, 24.606382700174372 ], [ 121.053366545151363, 24.60631131181237 ], [ 121.053680630188609, 24.606316053945154 ], [ 121.053752014425072, 24.606339844331327 ], [ 121.053942375681956, 24.606449288691966 ], [ 121.054156537031972, 24.606639634788078 ], [ 121.05468954599985, 24.606901346348621 ], [ 121.054922734082368, 24.606967958157551 ], [ 121.055103574570339, 24.607039332026634 ], [ 121.055203524857959, 24.607248719388075 ], [ 121.055165467426562, 24.607462873468265 ], [ 121.055070298860414, 24.60758661009735 ], [ 121.054799053346628, 24.607734151469799 ], [ 121.054599182129749, 24.607738921553128 ], [ 121.054342887695825, 24.607569525662171 ] ], [ [ 121.051445534437164, 24.605173868952875 ], [ 121.051424842942509, 24.604936088373872 ], [ 121.051619954985753, 24.604917041809639 ], [ 121.051910248910914, 24.604978892200343 ], [ 121.05207681809631, 24.605116892236534 ], [ 121.052067308784217, 24.605254900948452 ], [ 121.051853167840207, 24.605364368205997 ], [ 121.051445534437164, 24.605173868952875 ] ], [ [ 121.050596792046875, 24.604783847567326 ], [ 121.050454018309352, 24.604655364663451 ], [ 121.050244616413977, 24.604469778419215 ], [ 121.049934864152178, 24.604062720639408 ], [ 121.049640207414896, 24.603941570974023 ], [ 121.049602127658844, 24.603798804736552 ], [ 121.049668743461766, 24.603679827973789 ], [ 121.050144612225381, 24.603418061548599 ], [ 121.050406349979795, 24.603432324057142 ], [ 121.050558639840901, 24.603527494648098 ], [ 121.050758530565091, 24.603822537022399 ], [ 121.050696683845047, 24.604108075202465 ], [ 121.05095844169459, 24.604417390953227 ], [ 121.050996523308527, 24.604588710671845 ], [ 121.051020328384851, 24.604760030267542 ], [ 121.050834740515512, 24.604869495972341 ], [ 121.050596792046875, 24.604783847567326 ] ], [ [ 121.050628638731183, 24.602743219779576 ], [ 121.050126077944668, 24.602347305193408 ], [ 121.04985956067398, 24.602019905228879 ], [ 121.049897611237341, 24.601700104164749 ], [ 121.050065108549617, 24.601479280866052 ], [ 121.050552424083023, 24.601623925643239 ], [ 121.050976571175767, 24.601519054196682 ], [ 121.052060062261049, 24.602118771282971 ], [ 121.052456007455703, 24.602255806465621 ], [ 121.052478871710804, 24.602590834238359 ], [ 121.05222760861011, 24.602651761694908 ], [ 121.051763150985678, 24.602758387213811 ], [ 121.051549961819418, 24.602872612732444 ], [ 121.050628638731183, 24.602743219779576 ] ], [ [ 121.048207187799846, 24.60050475397529 ], [ 121.047879742339006, 24.599956544028636 ], [ 121.047856879572436, 24.599644359937763 ], [ 121.04803961421311, 24.599552978861002 ], [ 121.048252819726244, 24.599690023981868 ], [ 121.048473663961147, 24.600200168714849 ], [ 121.048694495814445, 24.600519956603314 ], [ 121.048685592473348, 24.600738436638661 ], [ 121.048496541587028, 24.6007407806588 ], [ 121.048207187799846, 24.60050475397529 ] ], [ [ 121.043761897751239, 24.599596914000404 ], [ 121.043997940279553, 24.599650201299912 ], [ 121.04409694092007, 24.599901466559139 ], [ 121.043937055672458, 24.600099446660355 ], [ 121.043525883948632, 24.599985255087521 ], [ 121.043411687584651, 24.600244146500216 ], [ 121.043259403202143, 24.600385307007596 ], [ 121.042985294878022, 24.600251784245 ], [ 121.043213695621844, 24.599871058132827 ], [ 121.042886277397486, 24.599741632882719 ], [ 121.042543637604012, 24.59971119416446 ], [ 121.042513171683666, 24.599558910882703 ], [ 121.042665445541658, 24.599421844990314 ], [ 121.04313752555548, 24.599437048447268 ], [ 121.043373564617283, 24.599437035614137 ], [ 121.043761897751239, 24.599596914000404 ] ], [ [ 121.045330789076544, 24.598256795358122 ], [ 121.045524943463619, 24.598142570875062 ], [ 121.045793342005453, 24.598136845586971 ], [ 121.045867585945473, 24.598228212692707 ], [ 121.045804782178394, 24.598428090480368 ], [ 121.045319603439225, 24.59844997218746 ], [ 121.045330789076544, 24.598256795358122 ] ] ] ] } },
{ "type": "Feature", "properties": { "OBJECTID_1": 61, "OBJECTID_2": 62, "OBJECTID": 63, "番號": "29", "類型": "蕃", "分區": "準要", "Shape_Leng": 0.01382250121, "Shape_Area": 8.66767e-06 }, "geometry": { "type": "MultiPolygon", "coordinates": [ [ [ [ 121.058939656122476, 24.611954856575203 ], [ 121.059160436937347, 24.611490373404315 ], [ 121.059175596061422, 24.610431988107418 ], [ 121.059282165074805, 24.609975125711159 ], [ 121.059515774051107, 24.609572192358073 ], [ 121.060172959877676, 24.609008063932468 ], [ 121.060698287803703, 24.608246607997501 ], [ 121.06063732483419, 24.607477569387814 ], [ 121.059329955691766, 24.606498858626821 ], [ 121.058761113302879, 24.606451486285973 ], [ 121.058467134379512, 24.606422920912784 ], [ 121.058245411694443, 24.608140693318774 ], [ 121.058062801187205, 24.610139451441054 ], [ 121.05815426022734, 24.611510016270273 ], [ 121.058257636514838, 24.61192095325071 ], [ 121.058597024271322, 24.61204624635236 ], [ 121.058939656122476, 24.611954856575203 ] ] ] ] } },
{ "type": "Feature", "properties": { "OBJECTID_1": 63, "OBJECTID_2": 64, "OBJECTID": 0, "番號": "42", "類型": "蕃", "分區": "準要", "Shape_Leng": 0.00539846257, "Shape_Area": 2.04431e-06 }, "geometry": { "type": "MultiPolygon", "coordinates": [ [ [ [ 121.031091548375102, 24.547852491982731 ], [ 121.031659658337134, 24.547435821337384 ], [ 121.030909393868583, 24.546420334754412 ], [ 121.030040699255608, 24.54640202942057 ], [ 121.02978945720487, 24.546801792700787 ], [ 121.029835185836191, 24.547475653294789 ], [ 121.030292062639901, 24.547886799543885 ], [ 121.031091548375102, 24.547852491982731 ] ] ] ] } },
{ "type": "Feature", "properties": { "OBJECTID_1": 65, "OBJECTID_2": 0, "OBJECTID": 0, "番號": "32", "類型": "蕃", "分區": "準要", "Shape_Leng": 0.003927827, "Shape_Area": 1.04805e-06 }, "geometry": { "type": "MultiPolygon", "coordinates": [ [ [ [ 121.047697629351134, 24.585265777703878 ], [ 121.047695137714342, 24.585257323310756 ], [ 121.047360513955411, 24.584182699063295 ], [ 121.046850166085363, 24.584299037040665 ], [ 121.04645426147151, 24.584786372505441 ], [ 121.046819780432713, 24.58539549508415 ], [ 121.047276635494057, 24.585471613176352 ], [ 121.047697629351134, 24.585265777703878 ] ] ] ] } }
]
}
