{
"type": "FeatureCollection",
"name": "南庄不要存置林野",
"crs": { "type": "name", "properties": { "name": "urn:ogc:def:crs:OGC:1.3:CRS84" } },
"features": [
{ "type": "Feature", "properties": { "OBJECTID": 34, "番號": "二", "類型": null, "分區": "不要", "Shape_Leng": 0.01184974318, "Shape_Area": 3.36914e-06 }, "geometry": { "type": "MultiPolygon", "coordinates": [ [ [ [ 120.973232614550682, 24.548224261292898 ], [ 120.973335396011009, 24.548075777590995 ], [ 120.9735752161194, 24.547664593487628 ], [ 120.973883590877847, 24.547687419540985 ], [ 120.974203370726983, 24.547447552011068 ], [ 120.974523135017762, 24.546967835205891 ], [ 120.974591632777773, 24.546510974824834 ], [ 120.974740094723373, 24.546293960280344 ], [ 120.974774333972974, 24.545917051517538 ], [ 120.974819980538683, 24.545311714253778 ], [ 120.97509407381942, 24.545060427811247 ], [ 120.975459542303682, 24.544877665674647 ], [ 120.975516633650003, 24.544649233795759 ], [ 120.975790727089532, 24.544386526859341 ], [ 120.975856296947867, 24.544391045094319 ], [ 120.975464371262234, 24.543707775614372 ], [ 120.975345261828735, 24.543826900922195 ], [ 120.974625777944169, 24.544683546317486 ], [ 120.974248920821779, 24.545368852211837 ], [ 120.974157582076586, 24.545848556620513 ], [ 120.974089068016866, 24.546054145432574 ], [ 120.973735020764721, 24.54623690785029 ], [ 120.973495188218095, 24.54644250595933 ], [ 120.973506642048605, 24.546945047579268 ], [ 120.973472395391468, 24.547207742402364 ], [ 120.972775760647394, 24.548167179115193 ], [ 120.973038458784956, 24.548304221588698 ], [ 120.973232614550682, 24.548224261292898 ] ] ] ] } },
{ "type": "Feature", "properties": { "OBJECTID": 60, "番號": "一", "類型": null, "分區": "不要", "Shape_Leng": 0.01920436653, "Shape_Area": 9.83803e-06 }, "geometry": { "type": "MultiPolygon", "coordinates": [ [ [ [ 121.054496968520795, 24.610034552385162 ], [ 121.055090810452512, 24.609067506746833 ], [ 121.053472694565968, 24.607449561130217 ], [ 121.052292436454763, 24.606497840197811 ], [ 121.050141326151447, 24.604841852540535 ], [ 121.049906160008035, 24.604629685529879 ], [ 121.04964639856621, 24.604747969525896 ], [ 121.049397990524, 24.604805089997697 ], [ 121.049143869852685, 24.604845078691092 ], [ 121.04881550040956, 24.604719461227539 ], [ 121.04862418217003, 24.604525307954823 ], [ 121.048512824060381, 24.60450818192124 ], [ 121.048227282929929, 24.604362573791775 ], [ 121.048153033786903, 24.604191256938226 ], [ 121.047933813169919, 24.604129156267526 ], [ 121.048100206374926, 24.604547957100845 ], [ 121.049424626334741, 24.605635373437796 ], [ 121.050460213749972, 24.606564259459358 ], [ 121.051846085225364, 24.607995667705314 ], [ 121.053536531966671, 24.609548888766369 ], [ 121.054377526864243, 24.61007799344846 ], [ 121.054496968520795, 24.610034552385162 ] ] ] ] } }
]
}
