{
"type": "FeatureCollection",
"name": "南庄變動區",
"crs": { "type": "name", "properties": { "name": "urn:ogc:def:crs:OGC:1.3:CRS84" } },
"features": [
{ "type": "Feature", "properties": { "OBJECTID_1": 1, "OBJECTID": 0, "Shape_Leng": 0.0, "番號": "30 ノ二", "類型": "蕃", "分區": "準要", "Shape_Le_1": 0.02088516511, "Shape_Area": 1.227345e-05 }, "geometry": { "type": "MultiPolygon", "coordinates": [ [ [ [ 121.048932622973965, 24.594212985867127 ], [ 121.049302078574911, 24.593928457994263 ], [ 121.049518484627825, 24.592127629857853 ], [ 121.049487915834973, 24.590406804466273 ], [ 121.049350783851793, 24.589218985287907 ], [ 121.049228853153551, 24.587619993350859 ], [ 121.049457201449599, 24.586432154312305 ], [ 121.049860087813499, 24.585951223442542 ], [ 121.047838442303473, 24.585251538277561 ], [ 121.047980358813788, 24.58662255543662 ], [ 121.048194622236011, 24.588383344822162 ], [ 121.048289900945974, 24.589953784729968 ], [ 121.048147200538622, 24.590953166141503 ], [ 121.04783791053282, 24.591500459216022 ], [ 121.047623818806642, 24.592380871370001 ], [ 121.047742870707097, 24.593618184837727 ], [ 121.048242598395859, 24.594355790783535 ], [ 121.048932622973965, 24.594212985867127 ] ] ] ] } },
{ "type": "Feature", "properties": { "OBJECTID_1": 2, "OBJECTID": 0, "Shape_Leng": 0.0, "番號": "30ノ一", "類型": "蕃", "分區": "準要", "Shape_Le_1": 0.03633754462, "Shape_Area": 2.869911e-05 }, "geometry": { "type": "MultiPolygon", "coordinates": [ [ [ [ 121.055095364822762, 24.594569570293974 ], [ 121.055238031178177, 24.593046706906946 ], [ 121.055095100270222, 24.590500691134871 ], [ 121.054761933453122, 24.589786870412443 ], [ 121.054880894071772, 24.589620301373831 ], [ 121.054714273540995, 24.588692320490626 ], [ 121.054714190018316, 24.587407411142678 ], [ 121.054618871116077, 24.585218312200894 ], [ 121.054119036760738, 24.582838877499544 ], [ 121.054047632424769, 24.582505757132516 ], [ 121.053381366214666, 24.582101284483112 ], [ 121.053214787454209, 24.581815758721653 ], [ 121.052715084542371, 24.581458866456458 ], [ 121.051715777673238, 24.582267937551652 ], [ 121.050502340393791, 24.583362555998374 ], [ 121.04900336153348, 24.584290627392047 ], [ 121.048194385604873, 24.584742768739865 ], [ 121.047837503734598, 24.585242474958861 ], [ 121.047838442303473, 24.585251538277561 ], [ 121.049860087813499, 24.585951223442542 ], [ 121.05040128443801, 24.585305189278095 ], [ 121.05186315205718, 24.584482768680417 ], [ 121.052350475993109, 24.584756855621158 ], [ 121.05270077575878, 24.585487807506258 ], [ 121.052929258759576, 24.586386279167595 ], [ 121.052974987142136, 24.587041104685863 ], [ 121.052883721330019, 24.588655336420082 ], [ 121.05306650942957, 24.5893862974069 ], [ 121.053173161727642, 24.590223861895272 ], [ 121.053544416959511, 24.591213697835627 ], [ 121.054020386287348, 24.592498581323444 ], [ 121.054182234379624, 24.593221928885399 ], [ 121.054267935688756, 24.593869137669568 ], [ 121.054580774918549, 24.594741134091759 ], [ 121.055095364822762, 24.594569570293974 ] ] ] ] } },
{ "type": "Feature", "properties": { "OBJECTID_1": 3, "OBJECTID": 1, "Shape_Leng": 0.02581818951, "番號": "46ノ三", "類型": "蕃", "分區": "準要", "Shape_Le_1": 0.02581818951, "Shape_Area": 1.416408e-05 }, "geometry": { "type": "MultiPolygon", "coordinates": [ [ [ [ 120.981690683890363, 24.527683802229873 ], [ 120.982056144486435, 24.527379211610803 ], [ 120.982177939687247, 24.526891891004595 ], [ 120.981629661510354, 24.526008664780313 ], [ 120.981127057324045, 24.524942692877445 ], [ 120.980746295703923, 24.524120371368149 ], [ 120.980548214610877, 24.522384326648929 ], [ 120.980228314554722, 24.520754888809144 ], [ 120.979984634366005, 24.520343730942578 ], [ 120.979862736569643, 24.519247281945358 ], [ 120.979816980625955, 24.518150827921481 ], [ 120.979603710020484, 24.51700869830216 ], [ 120.9788118473476, 24.517191483525796 ], [ 120.978065688254574, 24.517648380624372 ], [ 120.977456592739429, 24.518227098795787 ], [ 120.977365259373528, 24.518790560676553 ], [ 120.977959227483154, 24.519765155587205 ], [ 120.979314649681626, 24.52130316614446 ], [ 120.97975632028853, 24.522064570554221 ], [ 120.979954382635185, 24.523511271800885 ], [ 120.980106706782237, 24.524135634271268 ], [ 120.980335198519114, 24.525171163689347 ], [ 120.980380930808764, 24.525902132214394 ], [ 120.98025913067211, 24.526313309896668 ], [ 120.980533264828168, 24.526678780534617 ], [ 120.980609427398164, 24.526998576331877 ], [ 120.980609466868898, 24.527607717934639 ], [ 120.981221685488237, 24.528219873244925 ], [ 120.981690683890363, 24.527683802229873 ] ] ] ] } },
{ "type": "Feature", "properties": { "OBJECTID_1": 4, "OBJECTID": 2, "Shape_Leng": 0.0434165944, "番號": "43ノ二", "類型": "蕃", "分區": "準要", "Shape_Le_1": 0.0434165944, "Shape_Area": 7.517428e-05 }, "geometry": { "type": "MultiPolygon", "coordinates": [ [ [ [ 121.028185722849898, 24.541695888498165 ], [ 121.028166533783846, 24.539316428506641 ], [ 121.029156333933827, 24.538669161357607 ], [ 121.02990806452668, 24.538537564122297 ], [ 121.030601064399917, 24.539439973040047 ], [ 121.030981825147791, 24.540248969203315 ], [ 121.031573972984447, 24.540834326625706 ], [ 121.031573951077419, 24.54049645664886 ], [ 121.031497769743865, 24.539887318337055 ], [ 121.031516713201896, 24.538478675575959 ], [ 121.031998571410128, 24.537078750018903 ], [ 121.03224595582185, 24.53590804115186 ], [ 121.032131685520369, 24.535013370090436 ], [ 121.031731860109474, 24.533757035881944 ], [ 121.031151189313235, 24.532367461598596 ], [ 121.030608589891727, 24.530977886147724 ], [ 121.030246843883816, 24.529845281324313 ], [ 121.02916167808651, 24.527589610611177 ], [ 121.028238395670428, 24.526590287010908 ], [ 121.027938533672554, 24.526551321246536 ], [ 121.027696788196209, 24.526852310535471 ], [ 121.026748884908827, 24.527788917936032 ], [ 121.025903763080535, 24.52857704166135 ], [ 121.024944429682591, 24.529376592076545 ], [ 121.024236364848207, 24.530198972554665 ], [ 121.024007994998684, 24.531044169807927 ], [ 121.024270771396573, 24.532403304004646 ], [ 121.025207441465568, 24.534367737271701 ], [ 121.025584411098222, 24.535418486766023 ], [ 121.025767251644368, 24.536960367580612 ], [ 121.026132856171571, 24.538890567636845 ], [ 121.02654411617192, 24.540352486309999 ], [ 121.027092427247581, 24.541757290582442 ], [ 121.027732091300649, 24.542887975569155 ], [ 121.028118401343946, 24.543206106051404 ], [ 121.028185722849898, 24.541695888498165 ] ] ] ] } },
{ "type": "Feature", "properties": { "OBJECTID_1": 5, "OBJECTID": 3, "Shape_Leng": 0.06061038405, "番號": "43ノ三", "類型": "蕃", "分區": "準要", "Shape_Le_1": 0.06061038405, "Shape_Area": 0.00016443211 }, "geometry": { "type": "MultiPolygon", "coordinates": [ [ [ [ 121.042069118523557, 24.543239358848826 ], [ 121.044079202401136, 24.542371222171742 ], [ 121.045461126586062, 24.541640176288453 ], [ 121.047242769553051, 24.54052078138573 ], [ 121.049538322290786, 24.53867038681069 ], [ 121.050555885605732, 24.537783162830191 ], [ 121.050318299231847, 24.537650571554138 ], [ 121.049880372849159, 24.535937383768154 ], [ 121.049785162914858, 24.535423424481209 ], [ 121.049556715816792, 24.535090312630196 ], [ 121.049404389862033, 24.534424071510106 ], [ 121.049242521559421, 24.533386635658562 ], [ 121.049204413797696, 24.532825084739606 ], [ 121.048185928603758, 24.531435534246761 ], [ 121.047767108532184, 24.530797861056737 ], [ 121.047100840222612, 24.530360076548316 ], [ 121.046710603166417, 24.530198294351695 ], [ 121.045835014391599, 24.530817001781131 ], [ 121.045359198289077, 24.531892544127565 ], [ 121.0444265314554, 24.532958593725098 ], [ 121.043941152318297, 24.533329815300572 ], [ 121.043341500423551, 24.532768295727855 ], [ 121.042237326378867, 24.530921893269287 ], [ 121.040761915196114, 24.528361672107899 ], [ 121.038087368927947, 24.527295818995707 ], [ 121.035936289202908, 24.526106204240261 ], [ 121.034765568423978, 24.525459054269984 ], [ 121.034879850076791, 24.526515529583882 ], [ 121.035279683469426, 24.527895595237879 ], [ 121.035841333689277, 24.529532634348172 ], [ 121.036022235818891, 24.530541516613077 ], [ 121.036755283418572, 24.533368276915297 ], [ 121.036869543842627, 24.5341106630339 ], [ 121.036841058626891, 24.535157627662727 ], [ 121.036488971279113, 24.536204609844027 ], [ 121.035889438162613, 24.537489550828763 ], [ 121.035404098511989, 24.538469915752714 ], [ 121.035109111158391, 24.539421715972487 ], [ 121.03499495624078, 24.540306881893603 ], [ 121.034738039979658, 24.541268198477759 ], [ 121.034814223783954, 24.541915407794725 ], [ 121.035775509098343, 24.541858248681272 ], [ 121.037193654411297, 24.541953350617646 ], [ 121.037897971622911, 24.542058008806666 ], [ 121.039278069629773, 24.542524308064699 ], [ 121.040220344835831, 24.542847863666427 ], [ 121.040991285587552, 24.542952518239261 ], [ 121.041752708610403, 24.543038137374207 ], [ 121.042040711817577, 24.543249881560918 ], [ 121.042069118523557, 24.543239358848826 ] ] ] ] } },
{ "type": "Feature", "properties": { "OBJECTID_1": 6, "OBJECTID": 4, "Shape_Leng": 0.05892963008, "番號": "43ノ一", "類型": "蕃", "分區": "準要", "Shape_Le_1": 0.05892963008, "Shape_Area": 0.0001489697 }, "geometry": { "type": "MultiPolygon", "coordinates": [ [ [ [ 121.027877854260737, 24.544055555067036 ], [ 121.028106261878577, 24.543779524482009 ], [ 121.028110999104527, 24.543372169907446 ], [ 121.028118401343946, 24.543206106051404 ], [ 121.027732091300649, 24.542887975569155 ], [ 121.027092427247581, 24.541757290582442 ], [ 121.02654411617192, 24.540352486309999 ], [ 121.026132856171571, 24.538890567636845 ], [ 121.025767251644368, 24.536960367580612 ], [ 121.025584411098222, 24.535418486766023 ], [ 121.025207441465568, 24.534367737271701 ], [ 121.024270771396573, 24.532403304004646 ], [ 121.024007994998684, 24.531044169807927 ], [ 121.024236364848207, 24.530198972554665 ], [ 121.024944429682591, 24.529376592076545 ], [ 121.025903763080535, 24.52857704166135 ], [ 121.026748884908827, 24.527788917936032 ], [ 121.027696788196209, 24.526852310535471 ], [ 121.027938533672554, 24.526551321246536 ], [ 121.025383058479704, 24.526219245661441 ], [ 121.023412870661161, 24.525895745753509 ], [ 121.022108923096908, 24.525562692193514 ], [ 121.020919188174247, 24.525248667494925 ], [ 121.01989124720653, 24.524810902566237 ], [ 121.018929921153443, 24.524239884140414 ], [ 121.018711000357229, 24.524030503206017 ], [ 121.017150154950698, 24.524944301063879 ], [ 121.016483963674716, 24.525696247053698 ], [ 121.01663636945878, 24.527580772232046 ], [ 121.017083815411709, 24.529341549954481 ], [ 121.01746466956638, 24.531578222961585 ], [ 121.017464762712109, 24.533015417308782 ], [ 121.017017520641275, 24.534414565808078 ], [ 121.016608336990885, 24.535613836069768 ], [ 121.016751148038466, 24.536318149660389 ], [ 121.017103340905379, 24.53689871863671 ], [ 121.017522162540885, 24.537545909390492 ], [ 121.017826751220099, 24.53788853555908 ], [ 121.01807425966021, 24.538630914479221 ], [ 121.0185121848655, 24.540325067321213 ], [ 121.019018008234468, 24.541926509840138 ], [ 121.019513412134202, 24.54255601485864 ], [ 121.020634771530808, 24.542437913474828 ], [ 121.0214818560124, 24.54257111740257 ], [ 121.022833398812978, 24.542989829684434 ], [ 121.024527587181495, 24.543541773257925 ], [ 121.025974296722069, 24.543808193634394 ], [ 121.026859457218137, 24.544027056838733 ], [ 121.027421009679131, 24.54414124029983 ], [ 121.027877854260737, 24.544055555067036 ] ] ] ] } },
{ "type": "Feature", "properties": { "OBJECTID_1": 7, "OBJECTID": 5, "Shape_Leng": 0.04882710897, "番號": "43ノ四", "類型": "蕃", "分區": "準要", "Shape_Le_1": 0.04882710897, "Shape_Area": 7.193867e-05 }, "geometry": { "type": "MultiPolygon", "coordinates": [ [ [ [ 121.038964425917541, 24.549310549634136 ], [ 121.039849519374116, 24.548482448842822 ], [ 121.040420533647676, 24.547740025541778 ], [ 121.041905251868172, 24.547054660526765 ], [ 121.042961673941718, 24.546369317856048 ], [ 121.043846804435759, 24.546112288498978 ], [ 121.044446414378697, 24.546026594622258 ], [ 121.045759836354605, 24.545683881585514 ], [ 121.046654497198077, 24.545626725182263 ], [ 121.047653870234896, 24.545836063752365 ], [ 121.048643740074823, 24.546264313157479 ], [ 121.049309998528216, 24.546549812715458 ], [ 121.04969070618759, 24.546540274531544 ], [ 121.050033333501744, 24.546378451683882 ], [ 121.050718564673048, 24.545693130066141 ], [ 121.051460921466216, 24.545321893639361 ], [ 121.052136667060367, 24.545141017665465 ], [ 121.053212176362223, 24.545264691661938 ], [ 121.05378324090529, 24.545283696631842 ], [ 121.053945041966045, 24.545283687853196 ], [ 121.054201985079331, 24.544750674409617 ], [ 121.053726029825427, 24.543665665272481 ], [ 121.053411893251905, 24.542866183959571 ], [ 121.053288116988355, 24.542161869388536 ], [ 121.053583067911745, 24.540648516220866 ], [ 121.053811449601753, 24.539972736927478 ], [ 121.053897069952882, 24.539373108293262 ], [ 121.053763800370675, 24.539039990384047 ], [ 121.053421140968851, 24.538706884731813 ], [ 121.052526457925097, 24.538421397556593 ], [ 121.051317685211785, 24.538059785401554 ], [ 121.050727575391761, 24.5378789780994 ], [ 121.050555885605732, 24.537783162830191 ], [ 121.049538322290786, 24.53867038681069 ], [ 121.047242769553051, 24.54052078138573 ], [ 121.045461126586062, 24.541640176288453 ], [ 121.044079202401136, 24.542371222171742 ], [ 121.042069118523557, 24.543239358848826 ], [ 121.042040711817577, 24.543249881560918 ], [ 121.042399943732676, 24.54351399481321 ], [ 121.042590333055699, 24.544056501526683 ], [ 121.042685580042587, 24.545141530444734 ], [ 121.042552364151732, 24.545636466179868 ], [ 121.042066988116133, 24.546055277207266 ], [ 121.040648884179092, 24.546597872096505 ], [ 121.039268857162426, 24.547226124468228 ], [ 121.03812675637856, 24.547597382599484 ], [ 121.03745102344547, 24.547987650481108 ], [ 121.037089377388469, 24.54839693817388 ], [ 121.037422541367732, 24.549082204553134 ], [ 121.038099838548789, 24.550014377369695 ], [ 121.038964425917541, 24.549310549634136 ] ] ] ] } },
{ "type": "Feature", "properties": { "OBJECTID_1": 8, "OBJECTID": 6, "Shape_Leng": 0.01205126328, "番號": "37ノ一", "類型": "蕃", "分區": "準要", "Shape_Le_1": 0.01205126328, "Shape_Area": 8.10939e-06 }, "geometry": { "type": "MultiPolygon", "coordinates": [ [ [ [ 121.037541715394411, 24.564426553184095 ], [ 121.037993757840056, 24.563665100359298 ], [ 121.037184664459232, 24.56230885120344 ], [ 121.036185231484495, 24.561190558659423 ], [ 121.035138275517411, 24.561071642357827 ], [ 121.033877191549962, 24.561262067668967 ], [ 121.034424520292831, 24.562190027917552 ], [ 121.035780894539684, 24.563736604212416 ], [ 121.035916528546892, 24.564431501364304 ], [ 121.03706586138091, 24.564902470686018 ], [ 121.037541715394411, 24.564426553184095 ] ] ] ] } },
{ "type": "Feature", "properties": { "OBJECTID_1": 9, "OBJECTID": 7, "Shape_Leng": 0.01176790003, "番號": "24ノ二", "類型": "蕃", "分區": "準要", "Shape_Le_1": 0.01176790003, "Shape_Area": 7.07674e-06 }, "geometry": { "type": "MultiPolygon", "coordinates": [ [ [ [ 121.032312670880913, 24.57764458758777 ], [ 121.032145059273617, 24.576106512778622 ], [ 121.032266837560286, 24.575360306992728 ], [ 121.032175423198439, 24.574675026583609 ], [ 121.031048457085845, 24.573609088724826 ], [ 121.030743904569562, 24.573837534025557 ], [ 121.030393723425206, 24.57491878034611 ], [ 121.030348142376212, 24.576517781436806 ], [ 121.030530926589464, 24.577203055985954 ], [ 121.030774636507616, 24.578071070412079 ], [ 121.030896453375192, 24.577918777954974 ], [ 121.031368535471913, 24.577979667004346 ], [ 121.03169375782268, 24.578209677090161 ], [ 121.031899911402249, 24.578159902791608 ], [ 121.032387394422699, 24.578335368259676 ], [ 121.032312670880913, 24.57764458758777 ] ] ] ] } },
{ "type": "Feature", "properties": { "OBJECTID_1": 10, "OBJECTID": 8, "Shape_Leng": 0.02400483486, "番號": "24ノ一", "類型": "蕃", "分區": "準要", "Shape_Le_1": 0.02400483486, "Shape_Area": 2.876874e-05 }, "geometry": { "type": "MultiPolygon", "coordinates": [ [ [ [ 121.041316434824779, 24.592428803638072 ], [ 121.041268730036336, 24.590644210004946 ], [ 121.041463484440754, 24.588872637074012 ], [ 121.040942595220884, 24.587680263879406 ], [ 121.040983974854953, 24.586942484621598 ], [ 121.040777965931596, 24.585606528306077 ], [ 121.040642226998855, 24.585110626900693 ], [ 121.039697862697579, 24.583791446192674 ], [ 121.038722255403698, 24.583149044058452 ], [ 121.036760886572537, 24.58426999036989 ], [ 121.037354049701818, 24.585697741066014 ], [ 121.037753888325582, 24.58715394962795 ], [ 121.038039570336792, 24.589466770657694 ], [ 121.038216911094935, 24.590581451193625 ], [ 121.038590090974225, 24.591891086959603 ], [ 121.039480989846865, 24.592523022874513 ], [ 121.041102334714793, 24.593166448394864 ], [ 121.041316434824779, 24.592428803638072 ] ] ] ] } },
{ "type": "Feature", "properties": { "OBJECTID_1": 11, "OBJECTID": 10, "Shape_Leng": 0.02467049929, "番號": "23ノ一", "類型": "蕃", "分區": "準要", "Shape_Le_1": 0.02467049929, "Shape_Area": 1.775544e-05 }, "geometry": { "type": "MultiPolygon", "coordinates": [ [ [ [ 121.058284441068835, 24.60446795627298 ], [ 121.057142183141906, 24.602421681661941 ], [ 121.057094520086181, 24.601279542304038 ], [ 121.057142029908221, 24.600066014968334 ], [ 121.0567041978763, 24.599809056541822 ], [ 121.056332980041731, 24.599380773605439 ], [ 121.056199693057536, 24.598781156845309 ], [ 121.055504823923073, 24.597610499190374 ], [ 121.055088904368802, 24.597047832958594 ], [ 121.055429452089555, 24.599341836209177 ], [ 121.055448636357383, 24.601626118171986 ], [ 121.055210716373026, 24.601978291311646 ], [ 121.05427798667543, 24.602073519998605 ], [ 121.053944889454087, 24.602416180787223 ], [ 121.053954445235163, 24.603006286750841 ], [ 121.054049636993653, 24.603225191899316 ], [ 121.054944365295427, 24.604205481842538 ], [ 121.05604847041127, 24.604985885127842 ], [ 121.056695696939187, 24.605328492608059 ], [ 121.056981243451617, 24.605556904930978 ], [ 121.057361981443691, 24.606013740827123 ], [ 121.05770463658331, 24.60628022195181 ], [ 121.058075834269715, 24.60638489816338 ], [ 121.058761113302808, 24.606451485386653 ], [ 121.059465879857001, 24.606510178198668 ], [ 121.058284441068835, 24.60446795627298 ] ] ] ] } }
]
}
